city,country,iso2,lat,lng,query,place_id,name,addr,place_lat,place_lng
Buenos Aires,Argentina,AR,-34.6025,-58.3975,train station,ChIJ--RJzrOxvJURZG8qN8jmgww,Acassuso,"899,B1641AFG, Eduardo Costa 801, B1641AFG Acassuso, Buenos Aires, Argentina",-34.4800001,-58.50395129999999
Buenos Aires,Argentina,AR,-34.6025,-58.3975,train station,ChIJ4RDQD6zMvJUR4bC3v7pWZXI,Darío Santillán y Maximiliano Kosteki,"BLD, Av. Pres. Hipólito Yrigoyen 400, B1870 Avellaneda, Buenos Aires, Argentina",-34.6619355,-58.3764798
Buenos Aires,Argentina,AR,-34.6025,-58.3975,train station,ChIJYSVSk7ylvJUR-zZi6vDvzlw,Estación Tigre,"Luis García 650, Tigre, Buenos Aires, Argentina",-34.4234521,-58.58184349999999
Buenos Aires,Argentina,AR,-34.6025,-58.3975,train station,ChIJV3qRiZa3vJURzCO8CLVX8Cs,Fernandez Moreno,"Diagonal 141 y Bueno Aires., Espora, Villa Lynch, Buenos Aires, Argentina",-34.595486,-58.535283
Buenos Aires,Argentina,AR,-34.6025,-58.3975,train station,ChIJBbf4mqbFvJURJnLSn3eeHJw,Laferrere,"Av. Gral. Rojo 7415, B1757 Gregorio de Laferrere, Buenos Aires, Argentina",-34.7506371,-58.5843843
Buenos Aires,Argentina,AR,-34.6025,-58.3975,train station,ChIJSfOQvoW3vJUR-ibX0MuqUA0,Lourdes,"1548,, Diagonal 141 1500, Santos Lugares, Buenos Aires, Argentina",-34.5937505,-58.5469581
Buenos Aires,Argentina,AR,-34.6025,-58.3975,train station,ChIJt1yo9Za1vJURUl08aXKN_sc,Mtro. Carranza,"Buenos Aires, Argentina",-34.5756947,-58.4351655
Buenos Aires,Argentina,AR,-34.6025,-58.3975,train station,ChIJO5OvTjDLvJURn--oIpRP89Q,Plaza Constitución,"Av. Brasil 1128, Buenos Aires, Argentina",-34.6282493,-58.38049090000001
Buenos Aires,Argentina,AR,-34.6025,-58.3975,train station,ChIJiY6tebPKvJURwmyqs_itvhc,Rail Line Belgrano Norte - Retiro Station,"Buenos Aires, Argentina",-34.5898961,-58.3743491
Buenos Aires,Argentina,AR,-34.6025,-58.3975,train station,ChIJ7_5dSOXHvJURVwP6ooAdm-c,Ramos Mejía,"14048, Av. Rivadavia 14000, Ramos Mejía, Buenos Aires, Argentina",-34.6402542,-58.5643392
Canberra,Australia,AU,-35.283,149.129,fast food,ChIJISxQEm6tF2sRRiFFIqTPmko,Hungry Jack's Burgers Belconnen,"108 Emu Bank, Road, Belconnen ACT 2617, Australia",-35.2363112,149.0703854
Canberra,Australia,AU,-35.283,149.129,fast food,ChIJ3xPgsXetF2sRl-m_dCCKc_c,Kingsley's Chicken Belconnen,"1 Rae St, Belconnen ACT 2617, Australia",-35.2362542,149.0608016
Canberra,Australia,AU,-35.283,149.129,fast food,ChIJ1RFn8WZNFmsR7kH_XmqWxQI,McDonald's Braddon,"Mort St, Braddon ACT 2601, Australia",-35.2753352,149.1308176
Canberra,Australia,AU,-35.283,149.129,fast food,ChIJpV6TT-1SFmsRlg8_gyB7SmY,McDonald's Dickson,"Cnr Badham Street &, Dickson Pl, Dickson ACT 2602, Australia",-35.2498103,149.1381879
Canberra,Australia,AU,-35.283,149.129,fast food,ChIJYa6yok61F2sRsdlGcClqzzs,McDonald's Erindale,"Cnr Ricardo Street &, McBryde Cres, Wanniassa ACT 2903, Australia",-35.4053191,149.0979273
Canberra,Australia,AU,-35.283,149.129,fast food,ChIJe4rlWZlUFmsRYvGzZpF-AoI,McDonald's Gungahlin,"Cnr Ernest Cavanagh &, Gozzard St, Gungahlin ACT 2912, Australia",-35.183677,149.1323738
Canberra,Australia,AU,-35.283,149.129,fast food,ChIJxRrhrORNFmsR16aUtQ190JA,McDonald's Majura Park,"MAJURA PARK Cnr Majura Road, Mustang Ave, ACT 2609, Australia",-35.2942894,149.1900706
Canberra,Australia,AU,-35.283,149.129,fast food,ChIJHy74cqpTFmsRe4XIxfVbNEA,McDonald's Mitchell,"661 Northbourne Ave, Lyneham ACT 2911, Australia",-35.2304555,149.1503226
Canberra,Australia,AU,-35.283,149.129,fast food,ChIJ2ecMDIPKF2sRa8y-iFb3LLw,McDonald's Tuggeranong,"Cowlishaw St, Tuggeranong ACT 2900, Australia",-35.4154799,149.0699407
Sydney,Australia,AU,-33.865,151.209444,fast food,ChIJ_57I9PKuEmsRiNv_mD5rOmY,Hungry Jack's Burgers North Sydney,"67-69 Mount St, North Sydney NSW 2059, Australia",-33.8391078,151.2075807
Sydney,Australia,AU,-33.865,151.209444,fast food,ChIJdfj4NjyuEmsR_3_uTOgmN0U,KFC George Street Sydney: Delivery,"485 George Street, Cnr Bathurst St, Sydney NSW 2000, Australia",-33.8744604,151.2065332
Sydney,Australia,AU,-33.865,151.209444,fast food,ChIJVaUz1GmuEmsRbP5RNeRV6no,McDonald's Sydney Gateway,"Loftus St &, Alfred St, Sydney NSW 2000, Australia",-33.8618124,151.210405
Sydney,Australia,AU,-33.865,151.209444,fast food,ChIJ2fYBWjyuEmsRfDHULH_SDlY,McDonald's The Strand Arcade,"375-377 George St, Sydney NSW 2000, Australia",-33.8692258,151.2066825
Sydney,Australia,AU,-33.865,151.209444,train station,ChIJb6gKEySjEmsRP7BNIW349IY,Harris Park Station,"Girraween St, Kingsgrove NSW 2208, Australia",-33.8233344,151.0076421
Graz,Austria,AT,47.07103,15.43811,train station,ChIJqUyVUGk1bkcRkcudwFYUL8s,Graz Don Bosco,"8020 Graz, Austria",47.0580203,15.419052
Graz,Austria,AT,47.07103,15.43811,train station,ChIJ5eT8-wo1bkcR3BZ6vuvF9PY,Graz Main Station,"Europaplatz 4, 8020 Graz, Austria",47.0727515,15.4162709
Graz,Austria,AT,47.07103,15.43811,train station,ChIJKQ6Xi1S1b0cRREVrZrLk82Q,Graz Puntigam Bahnhof,"8055 Graz, Austria",47.030811,15.429247
Vienna,Austria,AT,48.2,16.3666,train station,ChIJKxhZYGMGbUcRZhAJ4p-SlxM,Wien Floridsdorf Bahnhof,"Franz-Jonas-Platz, 1210 Wien, Austria",48.2562056,16.4004219
Vienna,Austria,AT,48.2,16.3666,train station,ChIJcw5fA7YHbUcR9uqSCCBND2k,Wien Franz-Josefs-Bahnhof,"1090 Vienna, Austria",48.2268763,16.3609483
Vienna,Austria,AT,48.2,16.3666,train station,ChIJUU071tupbUcRyFdx20Nwgqg,Wien Hauptbahnhof,"Am Hauptbahnhof 1, 1100 Wien, Austria",48.1851873,16.3765973
Vienna,Austria,AT,48.2,16.3666,train station,ChIJgYIk6uepbUcRk0DlTW-Jcec,Wien Hbf (Autoreisezuganlage),"1100 Vienna, Austria",48.177792,16.391293
Vienna,Austria,AT,48.2,16.3666,train station,ChIJ5TZqd_ynbUcRude0iIe9f6E,Wien Penzing Bahnhof,"1140 Vienna, Austria",48.192694,16.30486
Vienna,Austria,AT,48.2,16.3666,train station,ChIJTZILYhyqbUcREA7JmeM8Nzw,Wien Simmering Bahnhof,"1110 Vienna, Austria",48.1698895,16.4192671
Vienna,Austria,AT,48.2,16.3666,train station,ChIJl36pglEGbUcRGcbMMZQw7d0,Wien Traisengasse Bahnhof,"1200 Vienna, Austria",48.2341181,16.3840122
Vienna,Austria,AT,48.2,16.3666,train station,ChIJM3TCt_UHbUcRUQpk10hh5Gs,Wien Westbahnhof,"Europaplatz 2, 1150 Wien, Austria",48.1967991,16.3377019
Dhaka,Bangladesh,BD,23.7231,90.4086,fast food,ChIJeQn_JEPHVTcRZ-qNlGq0tSM,Captain's World,"Zahangir Gate, Tongi Diversion Rd, Dhaka 1206, Bangladesh",23.775635,90.3908841
Dhaka,Bangladesh,BD,23.7231,90.4086,train station,ChIJpRuXVRDHVTcRl26Ioz6A1-8,Banani Railway Station,"Dhaka 1212, Bangladesh",23.7956505,90.4008471
Dhaka,Bangladesh,BD,23.7231,90.4086,train station,ChIJN46LTri5VTcRCyFDrLogSoY,Gandaria Rail Station,"Satish Sarkar Rd, Dhaka 1204, Bangladesh",23.7014878,90.4289931
Dhaka,Bangladesh,BD,23.7231,90.4086,train station,ChIJTWbgV064VTcRRt21tVf8toY,Kamalapur Railway Station,"Kamalapur Rd, Dhaka 1222, Bangladesh",23.7318697,90.4261114
Dhaka,Bangladesh,BD,23.7231,90.4086,train station,ChIJV7-_bKCxVTcRdFt3fpO6AkY,Narayanganj Railway Junction,"Narayanganj 1400, Bangladesh",23.6187157,90.5055539
Dhaka,Bangladesh,BD,23.7231,90.4086,train station,ChIJ-fRv71PEVTcRTTPSrgTdRH8,Tongi Junction,"Tongi, Bangladesh",23.8985939,90.4084323
Dhaka,Bangladesh,BD,23.7231,90.4086,train station,ChIJvUujV4HGVTcRF8mmQKlXtG8,বিমান বন্দর স্টেশন,"Bir Uttam Ziaur Rahman Rd, Dhaka 1215, Bangladesh",23.8518873,90.40817059999999
Minsk,Belarus,BY,53.9,27.5666,fast food,ChIJ137q7dvP20YR-S4FwHscMkY,Carl's Jr.,"vulica Babrujskaja 6, Minsk, Belarus",53.8900663,27.5555061
Minsk,Belarus,BY,53.9,27.5666,fast food,ChIJJ186buvP20YRBqAECZpGoCE,KFC,"Prospekte Pobeditelei 1, Minsk, Belarus",53.90507210000001,27.5524349
Minsk,Belarus,BY,53.9,27.5666,fast food,ChIJA3FCrZjP20YRim7KewCgCFk,KFC,"Vulitsa Kuybyshava 38, Minsk, Belarus",53.919204,27.5754261
Minsk,Belarus,BY,53.9,27.5666,fast food,ChIJfxblVenP20YRmAH3preh1Ic,McDonald's,"Nemiga 12b, Minsk, Belarus",53.9023425,27.5484875
Minsk,Belarus,BY,53.9,27.5666,fast food,ChIJd8FF68HP20YRPG46S2rdzYA,McDonald's,"praspiekt Niezaliežnasci 23, Minsk, Belarus",53.90103389999999,27.5592158
Minsk,Belarus,BY,53.9,27.5666,train station,ChIJc4TaMtzP20YRyCY-VEuX8Rw,Minsk-Passazhirskij,"Minsk, Belarus",53.8908324,27.5507367
Minsk,Belarus,BY,53.9,27.5666,train station,ChIJJ3riwMzR20YRhwiY4gJ-tww,Minsk-Paudnyovy,"Ulitsa Libavo-Romenskaya, Minsk, Belarus",53.8655678,27.5609314
Minsk,Belarus,BY,53.9,27.5666,train station,ChIJGbK_MhnF20YRipp5u2jfHeU,о.п. Масюковщина,"Minsk, Belarus",53.9301324,27.4760743
Brussels,Belgium,BE,50.8333,4.3333,fast food,ChIJB--3EpjEw0cRtJVRgZTn3rk,Maison Antoine,"Place Jourdan 1, 1040 Etterbeek, Belgium",50.8368239,4.381476999999999
Brussels,Belgium,BE,50.8333,4.3333,train station,ChIJucWFf-jEw0cRqJFfGhYGsqM,Brussel-Zuid,"Avenue Fonsny 47B, 1060 Brussel, Belgium",50.8360982,4.3354548
Brussels,Belgium,BE,50.8333,4.3333,train station,ChIJGxP4X5rEw0cRRhL4obRAyfg,Brux./Brus.-Luxemb.,"Rue de Trèves, 1050 Bruxelles, Belgium",50.83828030000001,4.3730726
Brussels,Belgium,BE,50.8333,4.3333,train station,ChIJ9exvhJ3Dw0cRHmAGZFzpgSM,Gare de Bruxelles-Nord,"Rue du Progrès 76, 1030 Schaerbeek, Belgium",50.86049089999999,4.360106099999999
Brussels,Belgium,BE,50.8333,4.3333,train station,ChIJCWQPlq7Ew0cRB5XdA46Y9OU,Mérode/Merode,"Chaussée de Tervueren, 1040 Bruxelles, Belgium",50.83928,4.398931999999999
Brussels,Belgium,BE,50.8333,4.3333,train station,ChIJ5YPnghDDw0cRFQAB2V38MEQ,Station Brussel-Schaarbeek,"Place Princesse Elisabeth 5, 1030 Schaerbeek, Belgium",50.8781128,4.379658099999999
Brussels,Belgium,BE,50.8333,4.3333,train station,ChIJTaWmyJ7Ew0cRtsgeb6hiZvE,Station Brussel-Schuman,"Rue de la Loi, 1040 Bruxelles, Belgium",50.8424252,4.3790323
Brasília,Brazil,BR,-15.7833,-47.9161,train station,ChIJg2MztrU6WpMRR6WY8EPXIlo,Estação 108 Sul,"SHCS - Asa Sul, Brasilia - Federal District, 70390-100, Brazil",-15.8189551,-47.90402419999999
Brasília,Brazil,BR,-15.7833,-47.9161,train station,ChIJ46-qHFMlWpMRsnCqTngK-tY,Estação 112 Sul,"SHCS - Asa Sul, Brasilia - Federal District, 70297-400, Brazil",-15.8267631,-47.9147127
Brasília,Brazil,BR,-15.7833,-47.9161,train station,ChIJaSrm3cYxWpMRGkszUCpZ9Rc,Estação Feira,"Guará II QE 25 - Guará, Brasília - DF, 71025-100, Brazil",-15.8230865,-47.97504840000001
Brasília,Brazil,BR,-15.7833,-47.9161,train station,ChIJQyttu4IlWpMRUIfuMAnj674,International Airport of Brasilia,"Lago Sul, Brasília - DF, 71608-900, Brazil",-15.8697369,-47.9172348
Rio de Janeiro,Brazil,BR,-22.908333,-43.196389,fast food,ChIJtUq5SAXVmwARIbc_FKmRMKM,Burger King,"R. Visc. de Pirajá, 303 - Ipanema, Rio de Janeiro - RJ, 22410-001, Brazil",-22.9844053,-43.2043565
Rio de Janeiro,Brazil,BR,-22.908333,-43.196389,fast food,ChIJtawUJw3ZmwARWiQAK8jVa-M,Burgão,"Estr. dos Bandeirantes, 3300 - Jacarepaguá, Rio de Janeiro - RJ, 22775-110, Brazil",-22.9533176,-43.375721
Rio de Janeiro,Brazil,BR,-22.908333,-43.196389,fast food,ChIJT0PFnat-mQARet7OJqJ3xpI,Habib's,"Av. Brasil, 5455 - Bonsucesso, Rio de Janeiro - RJ, 21040-360, Brazil",-22.865992,-43.24817950000001
Rio de Janeiro,Brazil,BR,-22.908333,-43.196389,fast food,ChIJ182NG1V8mQARpg7-_a5YNEA,McDonald's,"Av. Dom Hélder Câmara, 5895 - Engenho de Dentro, Rio de Janeiro - RJ, 20771-002, Brazil",-22.8868503,-43.2884473
Rio de Janeiro,Brazil,BR,-22.908333,-43.196389,fast food,ChIJVVGUYMrZmwARCJRpiYnEc2g,McDonald's,"Estr. do Gabinal, 901 - bloco 1 - Freguesia de Jacarepaguá, Rio de Janeiro - RJ, 22760-000, Brazil",-22.9412456,-43.3446092
Rio de Janeiro,Brazil,BR,-22.908333,-43.196389,fast food,ChIJBQCZMV57mQARKYgjdmcr2rk,McDonald's,"Tv. da Brandura, 506 - Vila da Penha, Rio de Janeiro - RJ, 21250-010, Brazil",-22.8393943,-43.3108028
Rio de Janeiro,Brazil,BR,-22.908333,-43.196389,train station,ChIJxxzM6v1imQAR_rwWKeXOmgE,Bento Ribeiro,"R. Carolina Machado, 1566 - Oswaldo Cruz, Rio de Janeiro - RJ, 21555-190, Brazil",-22.8643182,-43.3615086
Rio de Janeiro,Brazil,BR,-22.908333,-43.196389,train station,ChIJY6P392p_mQAR5AcsyGwm8MY,Brazil Central Station,"Praça Cristiano Ottoni, S/N - Centro, Rio de Janeiro - RJ, 20080-102, Brazil",-22.9034484,-43.191604
Rio de Janeiro,Brazil,BR,-22.908333,-43.196389,train station,ChIJt5dOA_h-mQARNWYFcH_7_S4,Estação De São Cristóvão,"s/n, R. Bartolomeu de Gusmão - São Cristóvão, Rio de Janeiro - RJ, 20941-160, Brazil",-22.9095609,-43.2227946
Rio de Janeiro,Brazil,BR,-22.908333,-43.196389,train station,ChIJgQWzvrRjmQAR5I_0EOglVxk,Estação Deodoro,"Av. Duque de Caxias, S/N - Deodoro, Rio de Janeiro - RJ, 21615-220, Brazil",-22.8550037,-43.3834872
Rio de Janeiro,Brazil,BR,-22.908333,-43.196389,train station,ChIJ-XLCnLl9mQARjKr2cH7NvpY,Silva Freire,"R. Arquias Cordeiro, 209 - Méier, Rio de Janeiro - RJ, 20770-000, Brazil",-22.9041216,-43.27518449999999
Rio de Janeiro,Brazil,BR,-22.908333,-43.196389,train station,ChIJK8EGtBp7mQARmJ4nWvavvcc,Station de Lucas Parada,"Parada de Lucas, Rio de Janeiro - State of Rio de Janeiro, 21241-366, Brazil",-22.816245,-43.3007705
Sao Paulo,Brazil,BR,-23.55,-46.633333,fast food,ChIJLwjs47pXzpQR91EtMchR7bI,Burger King,"Av. Pedroso de Morais, 1556 - Pinheiros, São Paulo - SP, 05420-002, Brazil",-23.5588379,-46.6973431
Sao Paulo,Brazil,BR,-23.55,-46.633333,fast food,ChIJ9a6Q71RXzpQRllpjQFgaPBs,Burger King,"R. Periquito, 55 - Moema, São Paulo - SP, 04514-050, Brazil",-23.5982345,-46.6735736
Sao Paulo,Brazil,BR,-23.55,-46.633333,fast food,ChIJm1-_mtJZzpQRqAeq-LPpO64,Habib's,"R. Augusta, 1894 - Cerqueira César, São Paulo - SP, 01412-000, Brazil",-23.5590458,-46.6614456
Sao Paulo,Brazil,BR,-23.55,-46.633333,fast food,ChIJQ8dPlERXzpQRzUFPZGq73_c,McDonald's,"Av. Brg. Faria Lima, 3.805 - Jardim Paulistano, São Paulo - SP, 04538-133, Brazil",-23.5893826,-46.681313
Sao Paulo,Brazil,BR,-23.55,-46.633333,fast food,ChIJx7nyGgpazpQR2LnNqtycVls,McDonald's,"Alameda dos Pamaris, 291 - Moema, São Paulo - SP, 04086-020, Brazil",-23.6134868,-46.6691274
Sao Paulo,Brazil,BR,-23.55,-46.633333,fast food,ChIJ2T2NSHVXzpQRQj7I991EVYA,Nova Donna Carolina - Bar e Restaurante,"R. dos Pinheiros, 1205 - Pinheiros, São Paulo - SP, 05422-012, Brazil",-23.5682218,-46.6892396
Sao Paulo,Brazil,BR,-23.55,-46.633333,fast food,ChIJbdxKeb5bzpQRlroMtwsNwuY,Ragazzo,"Av. Dr. Gentil de Moura, 42 - Ipiranga, São Paulo - SP, 04273-100, Brazil",-23.6028502,-46.6146908
Sao Paulo,Brazil,BR,-23.55,-46.633333,fast food,ChIJN5-g7YZTzpQRVBupEnWswiU,Ragazzo,"Av. Carlos Lacerda, 970 - Campo Limpo, São Paulo - SP, 05789-001, Brazil",-23.6401518,-46.7801407
Sao Paulo,Brazil,BR,-23.55,-46.633333,train station,ChIJ4UrwHRVXzpQRrtD0r0sz1fU,Cidade Jardim,"R. Prof. Artur Ramos, 787 - Jardim Paulistano, São Paulo - SP, 01449-001, Brazil",-23.5853452,-46.6911446
Sao Paulo,Brazil,BR,-23.55,-46.633333,train station,ChIJ86KZVTdWzpQR7F2nwFZyRuw,Cidade Universitária,"Av. das Nações Unidas, 6200 - Pinheiros, São Paulo - SP, 05477-000, Brazil",-23.55709,-46.7114872
Sao Paulo,Brazil,BR,-23.55,-46.633333,train station,ChIJHd2pQZZPzpQRyDonmGJx3S0,Estação Autódromo,"Interlagos, São Paulo - State of São Paulo, 04815-130, Brazil",-23.7063004,-46.6883119
Sao Paulo,Brazil,BR,-23.55,-46.633333,train station,ChIJjz--szNXzpQR6uDCMAN-mLM,Estação Berrini,"Jardim Panorama, São Paulo - State of São Paulo, 04583-105, Brazil",-23.6047163,-46.6967696
Sao Paulo,Brazil,BR,-23.55,-46.633333,train station,ChIJYdON1iBRzpQRoDcCBzWtB3Q,Estação Granja Julieta,"Retiro Morumbi, São Paulo - State of São Paulo, 04794-000, Brazil",-23.6275297,-46.7119242
Sao Paulo,Brazil,BR,-23.55,-46.633333,train station,ChIJEUaI8ghXzpQR9UOsoRDcl2w,Estação Hebraica-Rebouças,"R. Ofélia - Pinheiros, São Paulo - SP, 05423-000, Brazil",-23.5730928,-46.6981184
Sao Paulo,Brazil,BR,-23.55,-46.633333,train station,ChIJbwX_ENtQzpQRwGu-8sAkY0s,Estação Morumbi,"Av. das Nações Unidas, 14171 - Chácara Itaim, São Paulo - SP, 04533-085, Brazil",-23.6220006,-46.70111499999999
Sao Paulo,Brazil,BR,-23.55,-46.633333,train station,ChIJKXZCCfz4zpQRYvC3cEKlgbo,Estação Piqueri,"R. José Peres Campelo, 400 - Piqueri, São Paulo - SP, 02675-031, Brazil",-23.5040082,-46.7148214
Sao Paulo,Brazil,BR,-23.55,-46.633333,train station,ChIJ-1cPDbNRzpQRP5hZfeeJb8I,Estação Socorro,"Largo do Socorro - Jardim São Luís, São Paulo - SP, 04760-000, Brazil",-23.6635297,-46.7108473
Sao Paulo,Brazil,BR,-23.55,-46.633333,train station,ChIJIeGV-Qz4zpQR0J1oNZC0t9I,Estação Água Branca,"Água Branca, São Paulo - State of São Paulo, 02675-031, Brazil",-23.5213685,-46.6884536
Sao Paulo,Brazil,BR,-23.55,-46.633333,train station,ChIJxfMp5lxYzpQRKJiuSIfTqrA,Julio Prestes Station,"R. Marquês de Itu - Vila Buarque, São Paulo - SP, 01223-001, Brazil",-23.5340884,-46.6398786
Sao Paulo,Brazil,BR,-23.55,-46.633333,train station,ChIJGylGOVlYzpQRSZWmk5VgHoM,Luz Station,"Praça da Luz, 1, Luz, São Paulo - SP, Brazil",-23.5350794,-46.6353093
Sao Paulo,Brazil,BR,-23.55,-46.633333,train station,ChIJ_06lNRT5zpQRLSSCYkn8h30,Pirituba,"s/n, Av. Paula Ferreira, 02921-010 - Vila Pirituba, São Paulo - SP, Brazil",-23.4879787,-46.7263063
Sao Paulo,Brazil,BR,-23.55,-46.633333,train station,ChIJZbc203xhzpQRvu7yD2gvEM0,São Miguel Paulista,"R. Salvador de Medeiros, 449 - São Miguel Paulista, São Paulo - SP, 08010-020, Brazil",-23.4905676,-46.44370199999999
Sao Paulo,Brazil,BR,-23.55,-46.633333,train station,ChIJ4eQe4zhXzpQRTacWl4bxR9E,Train Station - Vila Olímpia,"Marginal Pinheiros, 7522 - Pinheiros, São Paulo - SP, 04533-085, Brazil",-23.5936324,-46.6920311
Sao Paulo,Brazil,BR,-23.55,-46.633333,train station,ChIJDZEq3h1WzpQR9aF-prcthI0,Villa Lobos- Jaguaré,"Vila Hamburguesa, São Paulo - State of São Paulo, Brazil",-23.5460318,-46.7327301
Ottawa,Canada,CA,45.4167,-75.7,fast food,ChIJwQQqE8oFzkwRYQOdzVErvcI,McDonald's,"670 Bronson Ave, Ottawa, ON K1S 4E9, Canada",45.4029421,-75.70118409999999
Ottawa,Canada,CA,45.4167,-75.7,fast food,ChIJEXZXdusIzkwR4tSGmZPECWc,McDonald's,"2380 Bank St, Ottawa, ON K1V 8S1, Canada",45.3546782,-75.6507326
Ottawa,Canada,CA,45.4167,-75.7,fast food,ChIJF6Sbod4IzkwRNppri-az6kw,McDonald's,"1661 Hunt Club Rd, Ottawa, ON K1T 3Z3, Canada",45.3606106,-75.6314659
Ottawa,Canada,CA,45.4167,-75.7,fast food,ChIJTeoNfA0PzkwR2DXvJ0uXGoM,McDonald's,"1795 St Laurent Blvd, Ottawa, ON K1G 3V4, Canada",45.404348,-75.62527709999999
Ottawa,Canada,CA,45.4167,-75.7,fast food,ChIJB5CBsygBzkwRBg8113IxY7A,McDonald's,"2625 Carling Ave, Ottawa, ON K2B 6V3, Canada",45.3623152,-75.789408
Ottawa,Canada,CA,45.4167,-75.7,fast food,ChIJ-ZRDQ9gPzkwR_CZCrZgSdjI,McDonald's,"2170 Montreal Rd, Ottawa, ON K1J 1G4, Canada",45.449129,-75.5890908
Ottawa,Canada,CA,45.4167,-75.7,train station,ChIJwdIyYH8FzkwRtL7gV3fxxrI,Ottawa,"200 Tremblay Rd, Ottawa, ON K1G 3H5, Canada",45.4164349,-75.6516858
Ottawa,Canada,CA,45.4167,-75.7,train station,ChIJa2Ckik8EzkwRhvi_wNuI7TE,Pimisi,"Ottawa, ON K1R 7V9, Canada",45.4136682,-75.7136424
Toronto,Canada,CA,43.741667,-79.373333,fast food,ChIJcx2urAg1K4gRx5bGiAnZ0pk,McDonald's,"196 Bloor St W, Toronto, ON M5S 1T8, Canada",43.66871949999999,-79.3955476
Toronto,Canada,CA,43.741667,-79.373333,fast food,ChIJfbk7xJM0K4gR89A20VLLDlw,Popeyes Louisiana Kitchen,"553 Bloor St W, Toronto, ON M5S 1Y6, Canada",43.6651955,-79.4103654
Toronto,Canada,CA,43.741667,-79.373333,train station,ChIJj6ZzBnzR1IkR5CxA1vKCJww,Agincourt GO,"Toronto, ON M1S 1B5, Canada",43.78611,-79.284385
Toronto,Canada,CA,43.741667,-79.373333,train station,ChIJyx6FZOxHK4gRIjjWssgJDCc,Dixie GO Station,"2445 Dixie Rd, Mississauga, ON L4Y 2A1, Canada",43.60803,-79.577719
Toronto,Canada,CA,43.741667,-79.373333,train station,ChIJqc5UDCfQ1IkRxeuKDGwWizg,Eglinton GO,"Toronto, ON M1J 2E5, Canada",43.739935,-79.2315562
Toronto,Canada,CA,43.741667,-79.373333,train station,ChIJxQnrUAQ1K4gRKGpbEHK-ufk,Exhibition GO,"Toronto, ON, Canada",43.6358793,-79.41877339999999
Toronto,Canada,CA,43.741667,-79.373333,train station,ChIJa7THywjU1IkRSGkpqghZBKw,Milliken,"39 Redlea Ave, Scarborough, ON M1V 4S3, Canada",43.8231883,-79.3017648
Toronto,Canada,CA,43.741667,-79.373333,train station,ChIJt_U2M0_O1IkRo78FqLzyUbM,Scarborough GO,"3615 St Clair Ave E, Scarborough, ON M1N 3W6, Canada",43.71691149999999,-79.25472049999999
Toronto,Canada,CA,43.741667,-79.373333,train station,ChIJcTqTNNM0K4gRZR46MK6g2GM,Union Station,"65 Front St W, Toronto, ON M5J 1E6, Canada",43.64524550000001,-79.3806348
Toronto,Canada,CA,43.741667,-79.373333,train station,ChIJ82lO9dgwK4gRvk4jfddHlI4,Weston GO/UP,"1865 Weston Rd, York, ON M9N 1V9, Canada",43.7002944,-79.51366329999999
Vancouver,Canada,CA,49.25,-123.1,fast food,ChIJpxv2PvtzhlQRg71kXWStB78,Church's Chicken,"3425 Main St, Vancouver, BC V5V 3M9, Canada",49.254157,-123.1012899
Vancouver,Canada,CA,49.25,-123.1,fast food,ChIJydf90BN0hlQR5OFVu-6ooK0,Church's Chicken,"5704 Fraser Street, E 41st Ave, Vancouver, BC V5W 2Z5, Canada",49.2325792,-123.0901337
Vancouver,Canada,CA,49.25,-123.1,fast food,ChIJA98BZpN1hlQRGfpzE7K3GiY,Hi Five Chicken,"203 SE Marine Dr, Vancouver, BC V5X 3L6, Canada",49.211306,-123.1018814
Vancouver,Canada,CA,49.25,-123.1,fast food,ChIJO1V_sWZxhlQR69RUQ1rHcb0,McDonald's,"1527 Main St, Vancouver, BC V6A 2W5, Canada",49.271917,-123.1007164
Vancouver,Canada,CA,49.25,-123.1,fast food,ChIJm0jRjMt2hlQRO6rSYKwblRY,McDonald's,"2909 Grandview Hwy, Vancouver, BC V5M 2E4, Canada",49.2586899,-123.0435922
Vancouver,Canada,CA,49.25,-123.1,train station,ChIJ5URWK2RxhlQRrHLKR2r9N6M,Pacific Central Station,"1150 Station St, Vancouver, BC V6A 4C7, Canada",49.2736975,-123.0978918
Santiago,Chile,CL,-33.45,-70.667,train station,ChIJd1lK26DFYpYR2LW16VB1Wgs,Estacion Universidad de Chile,"Santiago, Santiago Metropolitan Region, Chile",-33.443809,-70.650391
Santiago,Chile,CL,-33.45,-70.667,train station,ChIJ1xmCWs3EYpYRHAsmwU5SMko,Pedro Aguirre Cerda station,"Pintor de La Fuente 5174, Pedro Aguirre Cerda, Región Metropolitana, Chile",-33.4933629,-70.68174499999999
Santiago,Chile,CL,-33.45,-70.667,train station,ChIJrZ0DzfXEYpYRc0070y3im3s,Terminal Alameda Santiago,"Av Libertador Bernardo O'Higgins 3850, Santiago, Estación Central, Región Metropolitana, Chile",-33.45437220000001,-70.6881262
Santiago,Chile,CL,-33.45,-70.667,train station,ChIJEV664ibZYpYRrw4DGBifQQE,Train Station 5 Pinos,"Av. Portales, San Bernardo, Región Metropolitana, Chile",-33.6237848,-70.7009435
Prague,Czechia,CZ,50.0833,14.466,fast food,ChIJlWiVKL2TC0cR51EFbXGJRvw,Burger King,"Chodovská 1554/3c, 141 00 Praha 4, Czechia",50.0526688,14.4740795
Prague,Czechia,CZ,50.0833,14.466,train station,ChIJ3yTW25OUC0cRdn29LaC5Qyc,Prague,"Wilsonova 300/8, 120 00 Vinohrady, Czechia",50.0831859,14.4352923
Prague,Czechia,CZ,50.0833,14.466,train station,ChIJJdPMLSmVC0cRyExDE2Yf_4k,Praha-Podbaba,"Goetheho, 160 00 Praha 6, Czechia",50.1123878,14.3953263
Prague,Czechia,CZ,50.0833,14.466,train station,ChIJ5XykMQ-TC0cR7El0Byr1NHQ,Praha-Strašnice Zastávka,"U Trati, 100 00 Strašnice, Czechia",50.0674922,14.4907676
Prague,Czechia,CZ,50.0833,14.466,train station,ChIJgxbubrfsC0cRpUIVCiw9uPs,Praha-Vysočany,"U Vinných sklepů, 190 00 Praha 9, Czechia",50.1121783,14.4974817
Copenhagen,Denmark,DK,55.6786,12.5635,train station,ChIJOcSZPQ1TUkYReZ-u88gslm0,Copenhagen Central Station,"22 Reventlovsgade Ved Tivolis Hovedindgang 1577 1577 V, Bernstorffsgade 16, 1577 København, Denmark",55.672689,12.5648692
Copenhagen,Denmark,DK,55.6786,12.5635,train station,ChIJj1eNkktSUkYRymaS4ok2Ghg,Nørrebro Station,"2200 Copenhagen, Denmark",55.700719,12.5378173
Copenhagen,Denmark,DK,55.6786,12.5635,train station,ChIJP26dA4FTUkYRslTllW_Xkdw,Sydhavn,"Ernst Kapers Vej 1, 2450 København SV, Denmark",55.6547272,12.5374094
Copenhagen,Denmark,DK,55.6786,12.5635,train station,ChIJ8zaE3eFSUkYRVzadu0lCQqU,Østerport Station,"Oslo Pl. 8, 2100 København Ø, Denmark",55.6925535,12.5873106
Cairo,Egypt,EG,30.05,31.25,fast food,ChIJCSObDiw-WBQRd1h_LbZuFxE,Hardee's,"13 El-Khalifa El-Maamoun, Mansheya El-Bakry, Heliopolis, Cairo Governorate, Egypt",30.0869845,31.3090299
Cairo,Egypt,EG,30.05,31.25,train station,ChIJzVhOF45AWBQRmxS8Dzkl1UI,Ramses Station,"Al Fagalah, Al Azbakeya, Cairo Governorate, Egypt",30.0623791,31.24656999999999
Tallinn,Estonia,EE,59.4339,24.728,fast food,ChIJCUl_sLvskkYRcwSs4Mc6zl8,Hesburger,"Punane 43, 13619 Tallinn, Estonia",59.4349895,24.8315719
Tallinn,Estonia,EE,59.4339,24.728,fast food,ChIJgXJCRO7skkYRfQQmPNXokGI,McDonald's Lasnamäe,"Mahtra 29, 13811 Tallinn, Estonia",59.4423196,24.8747029
Tallinn,Estonia,EE,59.4339,24.728,fast food,ChIJI0FmwvqUkkYRrG14AMW91tI,McDonald's Mustamäe,"Sõpruse pst. 200b, 13423 Tallinn, Estonia",59.40597150000001,24.7005502
Tallinn,Estonia,EE,59.4339,24.728,fast food,ChIJV4Z1VYaUkkYRzATl2flZaa8,McDonald's Sõle,"Paldiski maantee 44, 10614 Tallinn, Estonia",59.43241059999999,24.7135218
Tallinn,Estonia,EE,59.4339,24.728,fast food,ChIJ8QEOwGGTkkYRPSFJIra8YvA,McDonald's Viru,"Viru tänav 24, 10140 Tallinn, Estonia",59.4364979,24.7499449
Tallinn,Estonia,EE,59.4339,24.728,fast food,ChIJ2SFd5-yUkkYR6PXE30L-Zq0,Räägupesa,"Nõmme tee 53, 11311 Tallinn, Estonia",59.41499399999999,24.7189147
Tallinn,Estonia,EE,59.4339,24.728,fast food,ChIJUcSI25KUkkYRaBO4V1mQAks,Staap,"Nõmme tee 34, 13425 Tallinn, Estonia",59.4174862,24.7203995
Helsinki,Finland,FI,60.1756,24.9341,fast food,ChIJW_oOW38JkkYRG-pbpk2wWBg,King Kebab Kallio,"Vaasankatu 19a, 00101 Helsinki, Finland",60.18854899999999,24.956224
Helsinki,Finland,FI,60.1756,24.9341,fast food,ChIJFRhCijQKkkYREiMAvVwnJtk,McDonald's,"Fredrikinkatu 46, 00100 Helsinki, Finland",60.1689484,24.9299703
Helsinki,Finland,FI,60.1756,24.9341,fast food,ChIJUzZJsAIKkkYRjC4-lNkom9A,McDonald's,"Paciuksenkatu 29, 00270 Helsinki, Finland",60.195545,24.8907793
Helsinki,Finland,FI,60.1756,24.9341,train station,ChIJ25LjEc0LkkYRmSG_4N6eC1Y,Helsingin päärautatieasema,"Kaivokatu 1, 00100 Helsinki, Finland",60.1718729,24.9414217
Helsinki,Finland,FI,60.1756,24.9341,train station,ChIJP-2wAc0LkkYRA8TEHsUTgt0,Helsinki Central Station,"Kaivokatu 1, 00100 Helsinki, Finland",60.1711619,24.9414792
Helsinki,Finland,FI,60.1756,24.9341,train station,ChIJF6hEJuAJkkYRZyggu7OfW_U,Huopalahti Train Station,"00320 Helsinki, Finland",60.2181879,24.8929656
Helsinki,Finland,FI,60.1756,24.9341,train station,ChIJp_KkTrgJkkYRmKiWQJHm998,Käpylä station,"00610 Helsinki, Finland",60.2203332,24.9472963
Helsinki,Finland,FI,60.1756,24.9341,train station,ChIJIxyv9n4IkkYRhm27vvGKKvE,Tapanila railway station,"00730 Helsinki, Finland",60.26264380000001,25.02878
Lyon,France,FR,45.76,4.84,train station,ChIJU-LazG7r9EcRHupPkWDtdbU,Gare de Vaise,"2 Place de Paris, 69009 Lyon, France",45.780153,4.804104
Lyon,France,FR,45.76,4.84,train station,ChIJ644swrTr9EcRdgKu7yu33Nw,Lyon Perrache railway station,"14 Cours de Verdun Gensoul, 69002 Lyon, France",45.7484829,4.8257933
Lyon,France,FR,45.76,4.84,train station,ChIJKWSv_WLq9EcR-FEoq1JxCW4,Part Dieu railway station of Lyon,"5 Place Charles Béraudier, 69003 Lyon, France",45.7605474,4.861117699999999
Marseille,France,FR,43.2964,5.37,train station,ChIJS_1Y_EK_yRIRJA9k1_LeKzo,Gare de Marseille Blancarde,"Place de la Gare du S, 13005 Marseille, France",43.296203,5.406552
Marseille,France,FR,43.2964,5.37,train station,ChIJgZNMiJnAyRIR6DFWnaIu8uA,Gare de Marseille-Saint-Charles,"Square Narvik, 13232 Marseille, France",43.3032853,5.380141999999999
Paris,France,FR,48.8667,2.3333,train station,ChIJVyJPxRhu5kcRn7qM4_eQ_LA,Châtelet - Les Halles,"75001 Paris, France",48.8620508,2.3471532
Paris,France,FR,48.8667,2.3333,train station,ChIJYf3nJh1w5kcRRw9kv-3t5tE,Gare Champ de Mars Tour Eiffel,"Quai Branly, 75015 Paris, France",48.8550991,2.2891734
Paris,France,FR,48.8667,2.3333,train station,ChIJRXe4DXJu5kcR_u_BPeHJ2mE,Gare Magenta,"75010 Paris, France,Europe,District of Freedom#8573311~!#, France",48.8799249,2.3583865
Paris,France,FR,48.8667,2.3333,train station,ChIJn2vdJhRy5kcRvF_72xop47A,Gare de Bercy,"48 bis Boulevard de Bercy, 75012 Paris, France",48.8391439,2.3827415
Paris,France,FR,48.8667,2.3333,train station,ChIJJfZT0Kp65kcRw4i9JXclKxo,Gare de Boulainvilliers,"52 Rue des Vignes, 75016 Paris, France",48.8565681,2.2752017
Paris,France,FR,48.8667,2.3333,train station,ChIJf6NY_Gtu5kcRDHnd0mg3tk8,Gare du Nord,"18 Rue de Dunkerque, 75010 Paris, France",48.8809481,2.3553137
Paris,France,FR,48.8667,2.3333,train station,ChIJzYFCjKF65kcRzeg9vzQ0CPQ,Gare du Pont du Garigliano - Hôpital Européen Georges Pompidou,"193 Quai André Citroën, 75015 Paris, France",48.83934430000001,2.2706312
Paris,France,FR,48.8667,2.3333,train station,ChIJS78AIBty5kcRZLsIMcKhPAA,Paris Gare de Lyon,"Place Louis-Armand, 75571 Paris, France",48.84430380000001,2.3743773
Berlin,Germany,DE,52.5218,13.4015,fast food,ChIJScwmSRJIqEcRcV145kVtWf8,McDonald's,"Wendenschloßstraße 2, 12559 Berlin, Germany",52.4480719,13.592939
Berlin,Germany,DE,52.5218,13.4015,fast food,ChIJJTrAdP9RqEcRFZCHzSjrgLo,RISA Chicken,"Schönhauser Allee 45, 10435 Berlin, Germany",52.5408573,13.4125605
Berlin,Germany,DE,52.5218,13.4015,train station,ChIJ62hndh9OqEcRydXjBjh91ps,Berlin Alexanderplatz Bahnhof,"Dircksenstr. 2, 10179 Berlin, Germany",52.52155630000001,13.4111577
Berlin,Germany,DE,52.5218,13.4015,train station,ChIJe-ff-71RqEcRqvy8lRR4PHo,Berlin Central Station,"Hauptbahnhof, Europaplatz 1, 10557 Berlin, Germany",52.5250839,13.369402
Berlin,Germany,DE,52.5218,13.4015,train station,ChIJcy1JA8NRqEcRBNy2MNzQTmw,Berlin Friedrichstraße station,"Georgenstraße 14/17, 10117 Berlin, Germany",52.5202894,13.3869776
Berlin,Germany,DE,52.5218,13.4015,train station,ChIJXdFtSjxIqEcRjoozhtQ1iDo,Berlin Hirschgarten railway station,"12587 Berlin, Germany",52.4579367,13.6026053
Berlin,Germany,DE,52.5218,13.4015,train station,ChIJhwfvW8lRqEcRud4JRZ-d6vQ,Berlin Potsdamer Platz Bahnhof,"Potsdamer Platz, 10785 Berlin, Germany",52.5087397,13.3761764
Berlin,Germany,DE,52.5218,13.4015,train station,ChIJweNzLf5QqEcR9_-BQ7QntcI,Berlin Zoologischer Garten,"Hardenbergplatz 11, 10623 Berlin, Germany",52.5073337,13.3323673
Berlin,Germany,DE,52.5218,13.4015,train station,ChIJkXqLeNlOqEcRnZjFxxIJhyQ,Betriebsbahnhof Rummelsburg,"10317 Berlin, Germany",52.4936801,13.4980973
Berlin,Germany,DE,52.5218,13.4015,train station,ChIJYxlGmqlHqEcRB_18Dsbch-0,Grünbergallee,"12529 Berlin, Germany",52.3991467,13.5409878
Berlin,Germany,DE,52.5218,13.4015,train station,ChIJz4ha4AFPqEcRYVFjG8IRfH8,Treptower Park,"12435 Berlin, Germany",52.493945,13.4614338
Cologne,Germany,DE,50.936389,6.9527779999999995,fast food,ChIJSwp9fxAnv0cRD_6xPLZG2gA,KFC,"Frankfurter Str. 751, 51149 Köln, Germany",50.917994,7.049837399999999
Cologne,Germany,DE,50.936389,6.9527779999999995,fast food,ChIJMxsFJd8lv0cRypS-ZpcznSk,McDonald's,"Istanbulstraße 1, 51103 Köln, Germany",50.9428679,6.994188200000001
Cologne,Germany,DE,50.936389,6.9527779999999995,train station,ChIJmY9JK6Ulv0cRkNik00YUhZU,Cologne Central Station,"Trankgasse 11, 50667 Köln, Germany",50.9432141,6.9586017
Cologne,Germany,DE,50.936389,6.9527779999999995,train station,ChIJIbzhf2Yov0cRbth8y7Xvi4M,Cologne Dellbrueck train station,"51069 Cologne, Germany",50.9816267,7.0706671
Cologne,Germany,DE,50.936389,6.9527779999999995,train station,ChIJUbBCq3s0v0cRCea8vdDIUFk,Dormagen Station,"41539 Dormagen, Germany",51.0993475,6.8149145
Cologne,Germany,DE,50.936389,6.9527779999999995,train station,ChIJCdTtyT8lv0cRS943ksi8YA8,Ehrenfeld Station,"Stammstraße 1, 50968 Köln, Germany",50.9516143,6.918375999999999
Cologne,Germany,DE,50.936389,6.9527779999999995,train station,ChIJi1M_rTTfvkcR4rM5naNEPeU,Köln/Bonn Flughafen,"Waldstraße 247, 51147 Köln, Germany",50.87896019999999,7.1192882
Dresden,Germany,DE,51.033333,13.733332999999998,fast food,ChIJw50cy6jPCUcRDfwOnnd6CeU,Burger King,"Leipziger Str. 115, 01127 Dresden, Germany",51.07799190000001,13.7151903
Dresden,Germany,DE,51.033333,13.733332999999998,fast food,ChIJxQYzBRHPCUcRUhQCBbMeC0o,McDonald's,"Hansastraße 56, 01097 Dresden, Germany",51.0748021,13.739819
Dresden,Germany,DE,51.033333,13.733332999999998,fast food,ChIJxeGrFavHCUcR3-ag2LrCJGY,McDonald's,"Michaelisstraße 1, 01257 Dresden, Germany",50.994893,13.8033974
Dresden,Germany,DE,51.033333,13.733332999999998,fast food,ChIJ0zbPMLHaCUcR0yUxjR7Iqzc,McDonald's,"Gompitzer Höhe 3, 01156 Dresden, Germany",51.0386541,13.6313785
Dresden,Germany,DE,51.033333,13.733332999999998,fast food,ChIJK9wfT9XJCUcR1_U9_Q81PFQ,McDonald's,"An der Prießnitzaue 1a, 01328 Dresden, Germany",51.0651502,13.8954278
Dresden,Germany,DE,51.033333,13.733332999999998,train station,ChIJHQaglIrFCUcRKf1lbzKbJ0k,Dresden Central Station,"Wiener Platz 4, 01069 Dresden, Germany",51.0405029,13.7314191
Dresden,Germany,DE,51.033333,13.733332999999998,train station,ChIJfYgPV3DPCUcR4Z37UQ0f6JU,Dresden Mitte,"Große Meißner Str. 15, 01097 Dresden, Germany",51.0559101,13.7240951
Dresden,Germany,DE,51.033333,13.733332999999998,train station,ChIJ6xfHNK_OCUcR24OFOKLw1KM,Dresden-Klotzsche railway station,"01109 Dresden, Germany",51.11425730000001,13.788367
Hamburg,Germany,DE,53.565278,10.001389,fast food,ChIJBROl0JWOsUcRzpM0Cq9wu2M,Burger King,"Eiffestraße 64, 20537 Hamburg, Germany",53.5521053,10.037185
Hamburg,Germany,DE,53.565278,10.001389,fast food,ChIJgYimH4aFsUcRTLfDySrk-qo,McDonald's,"Eiffestraße 440, 20537 Hamburg, Germany",53.5520793,10.0464022
Hamburg,Germany,DE,53.565278,10.001389,train station,ChIJB2JZALOFsUcRbIS7ihLVb7o,Othmarschen Station,"22605 Hamburg, Germany",53.5591607,9.8853773
Hamburg,Germany,DE,53.565278,10.001389,train station,ChIJ3zB6oBqPsUcRjIuwpX-yfbE,Stadthausbrücke,"20354 Hamburg, Germany",53.5498373,9.986447
Munich,Germany,DE,48.133333,11.566667,fast food,ChIJNS_l9Fh2nkcRDnI6M7q6Vus,Kentucky Fried Chicken,"Hanauer Str. 44, 80992 München, Germany",48.1782455,11.5295687
Munich,Germany,DE,48.133333,11.566667,fast food,ChIJfXFTWYp1nkcRE_JLWvGyhM4,McDonald's,"Tal 6, 80331 München, Germany",48.1360227,11.5781413
Munich,Germany,DE,48.133333,11.566667,fast food,ChIJd092EPd2nkcR6jeXmFFeeYI,McDonald's,"Hanauer Str. 83, 80993 München, Germany",48.18411,11.5310064
Munich,Germany,DE,48.133333,11.566667,fast food,ChIJUcJs8OcLnkcRse1PCHZJ1_E,McDonald's,"Maria-Probst-Straße 1, 80939 München, Germany",48.1922393,11.5845545
Munich,Germany,DE,48.133333,11.566667,train station,ChIJN0gzWd90nkcRRkR3lAdwFb8,Johanneskirchen,"81929 Munich, Germany",48.1682891,11.6458553
Munich,Germany,DE,48.133333,11.566667,train station,ChIJuVGxxf51nkcRwhxFwvIr7EM,Munich Central Station,"Bayerstraße 10A, 80335 München, Germany",48.1402669,11.559998
Munich,Germany,DE,48.133333,11.566667,train station,ChIJ23Mrqzd1nkcRBy0eVEuKJ2g,Munich Daglfing Station,"81929 Munich, Germany",48.1491952,11.6493532
Munich,Germany,DE,48.133333,11.566667,train station,ChIJN4x7l8renUcRa_KhONr3goY,Munich Solln station,"81479 Munich, Germany",48.0792767,11.5268934
Munich,Germany,DE,48.133333,11.566667,train station,ChIJ6xMu_c12nkcRdROoCrGUCDw,München-Feldmoching,"80995 Munich, Germany",48.2134621,11.540962
Accra,Ghana,GH,5.55,-0.2167,fast food,ChIJ6R8wOWeb3w8RiKD04A4oKdo,KFC East Legon,"47 Lagos Ave, Accra, Ghana",5.639455799999999,-0.1694301
Accra,Ghana,GH,5.55,-0.2167,fast food,ChIJ6YjVEIKa3w8RK6kd-LxyE-o,KFC Osu,"F739/2 Oxford St, Accra, Ghana",5.5630989,-0.1814913
Accra,Ghana,GH,5.55,-0.2167,fast food,ChIJG04d0niQ3w8RUscWYNPti1o,Papaye Fast Foods,"Oxford St, Accra, Ghana",5.5596081,-0.182023
Accra,Ghana,GH,5.55,-0.2167,fast food,ChIJeUW0_EWb3w8RAvgdH1Cqrao,Peterpan - East Legon,"Boundary Rd, Accra, Ghana",5.6308982,-0.1569847
Athens,Greece,GR,37.9833,23.7333,fast food,ChIJldoXnD69oRQR7I0-NfaEtHY,McDonald's,"Ermou 2, Athina 105 63, Greece",37.9758611,23.7337389
Athens,Greece,GR,37.9833,23.7333,train station,ChIJMxNcC1C9oRQRWIZtgF-tcgQ,Megaro Moussikis,"Ευζώνων, Αθήνα 115 28, Ελλάδα, Athina 115 21, Greece",37.979287,23.7529123
Athens,Greece,GR,37.9833,23.7333,train station,ChIJ1VvVryi9oRQRH_BW4fHNJ14,ΣΤ.ΜΕΤΑΞΟΥΡΓΕΙΟΥ,"Athens 104 37, Greece",37.9862832,23.7211433
Athens,Greece,GR,37.9833,23.7333,train station,ChIJM7Br8D69oRQRfKBw9CTBx7U,ΣΤ.ΣΥΝΤΑΓΜΑΤΟΣ,"Athens 105 57, Greece",37.9750846,23.7356843
Budapest,Hungary,HU,47.5,19.0833,fast food,ChIJJaAe123cQUcR4G-dJboOYCQ,Burger King,"Budapest Oktogon Square 1, 1066 Hungary",47.5052365,19.0627613
Budapest,Hungary,HU,47.5,19.0833,fast food,ChIJJ7bCG2_cQUcRtkKapSYxNLM,KFC Király,"Budapest, Erzsébet krt. 53, 1073 Hungary",47.50326219999999,19.0661194
Budapest,Hungary,HU,47.5,19.0833,fast food,ChIJaRBfDUPcQUcRqNMImKSkP5g,McDonald's,"Budapest, Múzeum krt. 1b, 1053 Hungary",47.4939387,19.0599115
Budapest,Hungary,HU,47.5,19.0833,train station,ChIJ6-7K7iDcQUcRHWbwGDRr6WY,Budapest-Déli,"Budapest, 1012 Hungary",47.5002831,19.0247399
Bangalore,India,IN,12.983333,77.583333,fast food,ChIJXcv8B5UVrjsRHBq0Z-bjrws,Hari Super Sandwich,"121/A, 8th Main Road, Jayanagar, 3rd Block, Bengaluru, Karnataka 560011, India",12.9328532,77.5825484
Bangalore,India,IN,12.983333,77.583333,fast food,ChIJ9e9PrIQ9rjsRQSCds-ay0w0,New Sagar Fast Food And Family Restaurant,"1st Block, 2nd Stage, Rajajinagar, Bengaluru, Karnataka 560010, India",13.0041683,77.55070649999999
Bangalore,India,IN,12.983333,77.583333,train station,ChIJ4wqTDbUWrjsRm4-zkX8r4a4,Baiyyappanahalli,"NGEF Main Rd, Sadanandanagar, Bennigana Halli, Bengaluru, Karnataka 560038, India",12.9903358,77.652643
Bangalore,India,IN,12.983333,77.583333,train station,ChIJO2OU_OYWrjsRbHkR6ZURnsQ,Banaswadi,"Munithayappa Layout 4th Cross Rd, Jai Bharat Nagar, Jayabharathi Nagar, Maruthi Sevanagar, Bengaluru, Karnataka 560033, India",13.0057605,77.628236
Bangalore,India,IN,12.983333,77.583333,train station,ChIJPRoKV1wWrjsRbvQCTzLBlf8,Bangalore Cant,"Cantonment Railway Station Rd, Cantonment Railway Quarters, Vasanth Nagar, Bengaluru, Karnataka 560046, India",12.9937224,77.5980391
Bangalore,India,IN,12.983333,77.583333,train station,ChIJ68tucvAWrjsRd0-3D4Ysygc,Bangalore East,"Pottery Road, Pulikeshi Nagar, Bengaluru, Karnataka 560005, India",13.0012254,77.6182764
Bangalore,India,IN,12.983333,77.583333,train station,ChIJz5plOxsWrjsRqdJAWXopk-Y,Bengaluru City Junction Railway Station,"Kempegowda, Sevashrama, Bengaluru, Karnataka 560023, India",12.9783133,77.56970199999999
Bangalore,India,IN,12.983333,77.583333,train station,ChIJK6u4WxsWrjsR7gb320OEztk,Krantivira Sangolli Rayanna (Bengaluru),"M.G. Railway Colony, Majestic, Bengaluru, Karnataka 560023, India",12.9781291,77.5695295
Bangalore,India,IN,12.983333,77.583333,train station,ChIJlQLUaygWrjsRxvfTKCmxDjw,Malleswaram,"1st Main Rd, Maruthi Extension Vinayaka Layout, Malleshwaram, Bengaluru, Karnataka 560010, India",13.0004244,77.5635929
Bangalore,India,IN,12.983333,77.583333,train station,ChIJKbinNuERrjsRyEz_7Blrnu0,Railway Goods Loading Junction,"SGT Goods Shed Rd, Kadugodi, Bengaluru, Karnataka 560067, India",12.9918922,77.74163159999999
Bangalore,India,IN,12.983333,77.583333,train station,ChIJszkuj1gYrjsR0srvgwfUoNE,Yelahanka Junction,"Kamakshiamma Layout, Yelahanka, Bengaluru, Karnataka 560064, India",13.1049802,77.5917985
Bangalore,India,IN,12.983333,77.583333,train station,ChIJ_XNnaWU9rjsRPkW5Tyg9GYU,Yeshwanthpur Junction,"Tumkur Main Rd, Dr.Ambedkar Nagar, Yeswanthpur, Bengaluru, Karnataka 560022, India",13.0237502,77.551712
Delhi,India,IN,28.61,77.23,train station,ChIJk70Wqj77DDkRlMdmQOtzRlU,Anand Vihar Terminal,"Footover Bridge, Plot Alpha, Isbt Anand Vihar, Anand Vihar, Delhi, 110092, India",28.64878509999999,77.3154287
Mumbai,India,IN,18.975,72.82583299999999,fast food,ChIJBYt_Q9jO5zsR2-g8lW4zJgA,DP's Fast Food Centre Matunga,"Nandadeep Building, 153, Lakhamsi Napoo Rd, Opposite Ruia College, Matunga Central Railway Workshop, Mumbai, Maharashtra 400019, India",19.0232111,72.8495149
Mumbai,India,IN,18.975,72.82583299999999,fast food,ChIJ69uFSNLI5zsRvfci68sbs7w,Gurukripa,"40, Rd Number 24, Near SIES College, Sion West, Sion, Mumbai, Maharashtra 400022, India",19.0429369,72.8618066
Mumbai,India,IN,18.975,72.82583299999999,fast food,ChIJ2S-cy3vO5zsRuRz1Y7XPXO8,Haji Ali Juice Centre,"Lala Lajpatrai Marg, Haji Ali junction, Near the entrance to Haji Ali durgah, Dargah Rd, Mumbai, Maharashtra 400026, India",18.9783974,72.8111114
Mumbai,India,IN,18.975,72.82583299999999,fast food,ChIJk4ZDJbTJ5zsRY4MVmWfGH14,Pritam Fast Food,"Mahatma Gandhi Rd, Opp Agarwal Market, Navpada, Vile Parle East, Vile Parle, Mumbai, Maharashtra 400057, India",19.1013497,72.8464534
Mumbai,India,IN,18.975,72.82583299999999,train station,ChIJt7IrxxnJ5zsRfRq9PK91E3U,Bandra Junction,"Bandra Terminus, Naupada, Bandra East, Mumbai, Maharashtra 400051, India",19.0627256,72.8413911
Mumbai,India,IN,18.975,72.82583299999999,train station,ChIJCwutcdzO5zsR_OaUwR9amHQ,Dadar,"Western Railway Station, Dadar, Mumbai, Maharashtra, India",19.018769,72.84317659999999
Mumbai,India,IN,18.975,72.82583299999999,train station,ChIJky8WBS3G5zsRpyzlpX4r5_E,Ghatkopar,"Jawahar Rd, Ghatkopar, Saibaba Nagar, Pant Nagar, Ghatkopar East, Mumbai, Maharashtra 400077, India",19.0857262,72.9089968
Mumbai,India,IN,18.975,72.82583299999999,train station,ChIJZwcAS5TI5zsRr0ad6UeWowI,Kurla Station,"Station Brahmanwadi, Kurla, 400024, Station Rd, Kurla West, Kurla, Mumbai, Maharashtra 400070, India",19.0655986,72.8791535
Mumbai,India,IN,18.975,72.82583299999999,train station,ChIJCQm5y9fO5zsRUeigB6dFCIM,Matunga,"Matunga Central Railway Workshop, Hanuman Nagar, Dadar, Mumbai, Maharashtra 400019, India",19.02768,72.8502918
Mumbai,India,IN,18.975,72.82583299999999,train station,ChIJvWUwiW7O5zsRUhbzPs3reZg,Mumbai Central,"Nathani Heights Commercial,B'Wing,Shop no 57 Ground Floor, Mumbai Central, Mumbai, Maharashtra 400008, India",18.9696305,72.81936739999999
Mumbai,India,IN,18.975,72.82583299999999,train station,ChIJx1J7O-nO5zsR5NYtIWlrBok,Prabhadevi,"Balasheth Mandurkar Marg, Krishna Nagar, Parel, Mumbai, Maharashtra 400012, India",19.0075159,72.8359669
New Delhi,India,IN,28.6,77.2,train station,ChIJ03AFdA_9DDkRuW2vyViPeAs,Delhi Junction,"Mori Gate, New Delhi, Delhi 110006, India",28.6609621,77.2276794
New Delhi,India,IN,28.6,77.2,train station,ChIJubEs-oYCDTkRxFNCZtPJoWU,Delhi Sarai Rohilla,"Guru Gobind Singh Marg, Railway Officers Colony, Sarai Rohilla, New Delhi, Delhi 110005, India",28.6627512,77.1852469
New Delhi,India,IN,28.6,77.2,train station,ChIJoQ6DLnn7DDkRQd31oH29_M8,Delhi Shahdara Junction,"Shahdara, New Delhi, Delhi 110032, India",28.67343,77.2921989
New Delhi,India,IN,28.6,77.2,train station,ChIJlxEKDw_jDDkREk3nwomkhSU,Hazrat Nizamuddin Delhi,"Nizamuddin, Nizamuddin East, New Delhi, Delhi 110013, India",28.5888951,77.2534096
New Delhi,India,IN,28.6,77.2,train station,ChIJBXs6ETz9DDkRFllm4f46kfg,New Delhi,"Bhavbhuti Marg, Ratan Lal Market, Kamla Market, Ajmeri Gate, New Delhi, Delhi 110006, India",28.6428915,77.2190894
New Delhi,India,IN,28.6,77.2,train station,ChIJc5bp9zD9DDkRZTmwpf-Dz3k,Shivaji Bridge,"Metro Bhawan, Fire Brigade Lane, Gas Turbine Power Station, Barakhamba, New Delhi, Delhi 110001, India",28.6334633,77.22666760000001
New Delhi,India,IN,28.6,77.2,train station,ChIJnXjk_Cr9DDkRH72Sd2pK0Zo,Tilak Bridge,"Mahawat Khan Rd, Mata Sundari Railway Colony, Mandi House, New Delhi, Delhi 110002, India",28.6280285,77.2375368
Jakarta,Indonesia,ID,-6.1744,106.8294,fast food,ChIJdymE4UTwaS4RDsGFGd-UGfY,Blenger Burger,"Jl. Bintaro Taman Barat No.1, RT.16/RW.8, Bintaro, Kec. Pesanggrahan, Kota Jakarta Selatan, Daerah Khusus Ibukota Jakarta 12330, Indonesia",-6.2719485,106.7558124
Jakarta,Indonesia,ID,-6.1744,106.8294,fast food,ChIJr5BPAlvxaS4RMoqT7I2u8JU,Flip Burger,"Jl. Senopati No.27, RT.6/RW.3, Senayan, Kec. Kby. Baru, Kota Jakarta Selatan, Daerah Khusus Ibukota Jakarta 12190, Indonesia",-6.2308109,106.8085276
Jakarta,Indonesia,ID,-6.1744,106.8294,fast food,ChIJv1Gt4iX0aS4RbqzFLAv2XHw,McDonald's,"Sarinah Thamrin, Jl. M.H. Thamrin No.11, RT.8/RW.4, Gondangdia, Kec. Menteng, Kota Jakarta Pusat, Daerah Khusus Ibukota Jakarta 10350, Indonesia",-6.187459,106.823531
Jakarta,Indonesia,ID,-6.1744,106.8294,fast food,ChIJr9EGtar2aS4Rnp4i03ayBgs,McDonald's,"Plaza Sentral Ground Floor, Jl. Jend. Sudirman No.Kav.47-48, RT.5/RW.4, Karet Semanggi, Kota Jakarta Selatan, Daerah Khusus Ibukota Jakarta 10250, Indonesia",-6.217356,106.8166408
Jakarta,Indonesia,ID,-6.1744,106.8294,fast food,ChIJzXIiz7P1aS4RSux4OlHFt_U,Yakiniku Like Mall of Indonesia,"Mall of Indonesia, Lantai 2, Dotonbori, Jl. Boulevard Bar. Raya No.19, RT.18/RW.8, Klp. Gading Bar., Kec. Klp. Gading, Kota Jkt Utara, Daerah Khusus Ibukota Jakarta 14240, Indonesia",-6.150780999999999,106.8921979
Jakarta,Indonesia,ID,-6.1744,106.8294,train station,ChIJzzg0BqTzaS4RnbNFapMNxo4,Cawang Station,"Jl. Tebet Timur Raya No.55, Tebet Tim., Kec. Tebet, Kota Jakarta Selatan, Daerah Khusus Ibukota Jakarta 12820, Indonesia",-6.242665,106.8588155
Jakarta,Indonesia,ID,-6.1744,106.8294,train station,ChIJm3iAsLPzaS4RIwuzSklOkk0,Duren Kalibata Station,"Jl. Raya Kalibata No.60, Rawajati, Kec. Pancoran, Kota Jakarta Selatan, Daerah Khusus Ibukota Jakarta 12750, Indonesia",-6.2553411,106.8550395
Jakarta,Indonesia,ID,-6.1744,106.8294,train station,ChIJw9Nr5YH0aS4R_rD8b2gFFl4,Jatinegara Station,"Jl. Bekasi Barat IV No.7, RW.2, Rw. Bunga, Kecamatan Jatinegara, Kota Jakarta Timur, Daerah Khusus Ibukota Jakarta 13350, Indonesia",-6.2152144,106.8702784
Jakarta,Indonesia,ID,-6.1744,106.8294,train station,ChIJ_yd6laD2aS4RKztllgcJZ2s,Karet Station,"Kebon Melati, Tanahabang, Central Jakarta City, Jakarta, Indonesia",-6.200835,106.8158467
Jakarta,Indonesia,ID,-6.1744,106.8294,train station,ChIJX-zBy-X1aS4RvHLXyskd-Ig,Mangga Besar Station,"Jl. Karang Anyar, Karang Anyar, Kecamatan Sawah Besar, Kota Jakarta Pusat, Daerah Khusus Ibukota Jakarta, Indonesia",-6.1496813,106.8270263
Jakarta,Indonesia,ID,-6.1744,106.8294,train station,ChIJmQ6sHHH0aS4R2Kc4sEiEyUc,Manggarai,"H7 Jl. Manggarai Utara, RW.1, Manggarai, Kec. Tebet, Kota Jakarta Selatan, Daerah Khusus Ibukota Jakarta 12850, Indonesia",-6.2098913,106.8502147
Jakarta,Indonesia,ID,-6.1744,106.8294,train station,ChIJifHF1bn2aS4RbXEvJ7mHaRE,Palmerah Station,"Jl. Palmerah Utara, Gelora, Tanahabang, Kota Jakarta Pusat, Daerah Khusus Ibukota Jakarta 10270, Indonesia",-6.2074111,106.7974382
Jakarta,Indonesia,ID,-6.1744,106.8294,train station,ChIJqcaTNhMCai4R742huadaEv4,Soekarno-Hatta Airport Railway Station,"Pajang, Benda, Tangerang City, Banten, Indonesia",-6.127385299999999,106.6522037
Jakarta,Indonesia,ID,-6.1744,106.8294,train station,ChIJK1zST5vzaS4RS8TExpfzGRI,Tebet Station,"Tim, Jl. Tebet Raya No.62, Tebet Tim., Kec. Tebet, Kota Jakarta Selatan, Daerah Khusus Ibukota Jakarta 12820, Indonesia",-6.2260624,106.8582835
Dublin,Ireland,IE,53.3331,-6.2489,train station,ChIJBfHLsjcMZ0gR6tv-NUFv8bQ,Heuston,"Heuston Station, St John's Rd W, Dublin, Ireland",53.3461854,-6.2934917
Dublin,Ireland,IE,53.3331,-6.2489,train station,ChIJ71A33r0EZ0gRumvaOJPMiTw,Howth Railway Station,"Howth, Dublin, Ireland",53.3890183,-6.0742196
Dublin,Ireland,IE,53.3331,-6.2489,train station,ChIJUS84w14FZ0gRuNngvwtu4FY,Kilbarrack,"Briarfield Rd, Raheny - Foxfield, Dublin, D05 KP62, Ireland",53.3874906,-6.160956199999999
Dublin,Ireland,IE,53.3331,-6.2489,train station,ChIJLVeNgfcHZ0gR5dcPlfvxtsc,Shankill Station,"Rathsallagh Dr, Shankill, Dublin, D18 E6H7, Ireland",53.2364896,-6.1171145
Jerusalem,Israel,IL,31.7784,35.2066,fast food,ChIJuxYyUzfWAhUR9KCN627tLGE,מסעדת הלו תימן,"מתחם תחנת דלק פז ויצמן 3, Israel",31.789885,35.199131
Jerusalem,Israel,IL,31.7784,35.2066,train station,ChIJe1OM5NcpAxURDwMtG199-dk,Hadavidka,"Jerusalem, Israel",31.784475,35.21529
Jerusalem,Israel,IL,31.7784,35.2066,train station,ChIJq_Q7FTDWAhURAZuzk1-4vK4,Jerusalem Yitzhak Navon,"Jerusalem, Israel",31.7881487,35.2025746
Jerusalem,Israel,IL,31.7784,35.2066,train station,ChIJMbt67IvXAhURYP0WlnmYwUE,Jerusalem-Malha,"Jerusa lem, Jerusalem, Israel",31.7477639,35.1881041
Jerusalem,Israel,IL,31.7784,35.2066,train station,ChIJhRIR74vXAhURvoc8urk9-tA,Malha Railway Station,"Jerusalem, Israel",31.748043,35.18755
Tel Aviv,Israel,IL,32.066666999999995,34.783333,fast food,ChIJzYzsQbRLHRURsVceUhGGkRc,Ovad's Sabich,"Sirkin St 7, Giv'atayim, Israel",32.0769063,34.8142617
Tel Aviv,Israel,IL,32.066666999999995,34.783333,fast food,ChIJlbS83q9LHRURdEl997Xoww4,Suduch,"HaShalom Rd 51, Giv'atayim, Israel",32.067841,34.802782
Tel Aviv,Israel,IL,32.066666999999995,34.783333,fast food,ChIJh_Z9EJ1MHRUR1_tUcIVTTFk,Vitrina Lili,"Lilienblum St 40, Tel Aviv-Yafo, Israel",32.0623167,34.7719561
Tel Aviv,Israel,IL,32.066666999999995,34.783333,train station,ChIJhXnaV0yzAhURa_LkXkGCM5o,Holon Wolfson,"Tel Aviv-Yafo, Israel",32.035461,34.759781
Tel Aviv,Israel,IL,32.066666999999995,34.783333,train station,ChIJvWSdgNhLHRURGeYEu4n-BX8,TA University,"Rokach Blvd 95, Tel Aviv-Yafo, Israel",32.1035729,34.804544
Tel Aviv,Israel,IL,32.066666999999995,34.783333,train station,ChIJnXTNsb9LHRURACEfNTD58ik,Tel Aviv - Savidor Center,"Tel Aviv-Yafo, Israel",32.0841753,34.7983524
Tel Aviv,Israel,IL,32.066666999999995,34.783333,train station,ChIJp9_SHmZLHRURXBzmYEszCh0,Tel Aviv Ha'Hagana,"Tel Aviv-Yafo, Israel",32.054062,34.7847899
Tel Aviv,Israel,IL,32.066666999999995,34.783333,train station,ChIJ7-8kIZlLHRUR2qz0pEdmwYM,Tel Aviv-Hashalom,"לרחובות, Tel Aviv-Yafo, Israel",32.0734005,34.7931754
Naples,Italy,IT,40.845,14.258332999999999,fast food,ChIJbR9bJ-QIOxMRhS7wGg5sNcw,Puok Burger Store (VOL.1),"Via Francesco Cilea, 80127 Napoli NA, Italy",40.84322359999999,14.2221088
Naples,Italy,IT,40.845,14.258332999999999,train station,ChIJReH5bPanOxMRu1k5WT2A4Sk,Naples Gianturco Station,"80142 Naples, Metropolitan City of Naples, Italy",40.8537433,14.2878111
Naples,Italy,IT,40.845,14.258332999999999,train station,ChIJr6HTbmkIOxMR6LfVxmrbzyo,Naples Piazza Cavour Station,"80137 Naples, Metropolitan City of Naples, Italy",40.8553252,14.2550321
Naples,Italy,IT,40.845,14.258332999999999,train station,ChIJsSFo0BgJOxMRmmW2U0Qcmwk,Napoli Mergellina,"Corso Vittorio Emanuele, 4, 80122 Napoli NA, Italy",40.8314346,14.2192996
Naples,Italy,IT,40.845,14.258332999999999,train station,ChIJ4Y8S6hcIOxMRJ33aVApReX0,Napoli P. Garibaldi,"80142 Naples, Metropolitan City of Naples, Italy",40.852473,14.2721332
Naples,Italy,IT,40.845,14.258332999999999,train station,ChIJU0TH3T0IOxMRtkeV5ocNDBI,Napoli Porta Nolana,"80142 Naples, Metropolitan City of Naples, Italy",40.849194,14.2692759
Naples,Italy,IT,40.845,14.258332999999999,train station,ChIJOWkppjYJOxMRWIVCNtcjztI,Stazione Napoli Piazza Leopardi,"80124 Naples, Metropolitan City of Naples, Italy",40.8247876,14.2004024
Palermo,Italy,IT,38.116667,13.366667000000001,train station,ChIJv2MgYI7lGRMR-VYesXfT_9M,Palermo Centrale,"P.za Giulio Cesare, 90123 Palermo PA, Italy",38.10971190000001,13.3671945
Palermo,Italy,IT,38.116667,13.366667000000001,train station,ChIJ5d3hPmPvGRMRiM4zMEvzZYw,Palermo Palazzo Reale-Orleans,"90128 Palermo, Province of Palermo, Italy",38.1087813,13.3539756
Palermo,Italy,IT,38.116667,13.366667000000001,train station,ChIJh7rGZ47lGRMR4K5lyYlWWEE,Stazione Centrale,"90123 Palermo, Province of Palermo, Italy",38.1102041,13.3680971
Palermo,Italy,IT,38.116667,13.366667000000001,train station,ChIJ7c4nIE_vGRMRswauS7sjcSE,Stazione Palermo Notarbartolo,"Piazza Matteo Boiardo, 90144 Palermo PA, Italy",38.1324081,13.3419262
Rome,Italy,IT,41.896,12.4833,train station,ChIJDeY0fYCKJRMRNaiySIZzTys,Metro GARBATELLA,"Quartiere X Ostiense, 00154 Roma RM, Italy",41.8664796,12.4832113
Rome,Italy,IT,41.896,12.4833,train station,ChIJ3YbMWVBhLxMRpG4GXu-OG8U,Roma Nomentana,"00199 Rome, Metropolitan City of Rome, Italy",41.9325775,12.5233221
Rome,Italy,IT,41.896,12.4833,train station,ChIJD8KxTCtgLxMRVLBqmiNmyN4,Roma Ostiense,"Piazzale dei Partigiani, 00154 Roma RM, Italy",41.8728201,12.4841825
Rome,Italy,IT,41.896,12.4833,train station,ChIJlRxa-_NhLxMRkX7xjTtVBJU,Roma Tuscolana,"00182 Rome, Metropolitan City of Rome, Italy",41.87947279999999,12.5233541
Rome,Italy,IT,41.896,12.4833,train station,ChIJ00hDNcGKJRMRgAPEdHq688g,Villa Bonelli,"00149 Rome, Metropolitan City of Rome, Italy",41.8478814,12.4551902
Tokyo,Japan,JP,35.685,139.7514,fast food,ChIJ1b-LZDmNGGARb10FDfed-aM,KFC,"1 Chome-28-10 Takadanobaba, Shinjuku City, Tokyo 169-0075, Japan",35.7121787,139.7046843
Tokyo,Japan,JP,35.685,139.7514,fast food,ChIJsUd55LqMGGARAYlpkYlM4U8,McDonald's,"Japan, 〒150-0001 Tokyo, Shibuya City, Jingumae, 1 Chome−19−8 原宿ファミリービル １Ｆ",35.6716094,139.7035426
Tokyo,Japan,JP,35.685,139.7514,fast food,ChIJkznhuZ6OGGAR8P2k4ZU1bdk,Wendy's First Kitchen Ueno Asakusaguchi,"7 Chome-2-2 Ueno, 台東区 Taito City, Tokyo 110-0005, Japan",35.7124813,139.7772989
Tokyo,Japan,JP,35.685,139.7514,train station,ChIJK-m5fnbyGGARzAqJYzNX0MI,Asagaya Station,"3 Chome-36-2 Asagayaminami, Suginami City, Tokyo 166-0004, Japan",35.7048709,139.6355111
Tokyo,Japan,JP,35.685,139.7514,train station,ChIJ_yy1ybqMGGAR0tPR4qiHDVY,Harajuku Station,"1 Chome Jingumae, Shibuya City, Tokyo 150-0001, Japan",35.6702285,139.7026976
Tokyo,Japan,JP,35.685,139.7514,train station,ChIJ4yc4UTvzGGAR2dzBPcNtwDo,Hatagaya Station,"Japan, 〒151-0072 東京都渋谷区幡ケ谷1丁目2−1",35.677314,139.6768408
Tokyo,Japan,JP,35.685,139.7514,train station,ChIJLRE2fVxgGGARk_HykdulF3k,Kamata Station,"Japan, 〒144-0051 東京都大田区西蒲田７丁目２−3",35.5624794,139.7160731
Tokyo,Japan,JP,35.685,139.7514,train station,ChIJ5YZ6U1yKGGARfhvbKWcyVy0,Kitashinagawa Station,"1-chōme-1 Kitashinagawa, Shinagawa City, Tōkyō-to 140-0001, Japan",35.622066,139.739202
Tokyo,Japan,JP,35.685,139.7514,train station,ChIJJeSNmmjxGGAR7fBvh3Xjgig,Seijogakuen-mae Station,"6-chōme-5 Seijō, Setagaya City, Tōkyō-to 157-0066, Japan",35.6401283,139.5990873
Tokyo,Japan,JP,35.685,139.7514,train station,ChIJdYcUblqKGGARcNsG90fDRZo,Shinagawa Station,"3 Chome-26-27 Takanawa, Minato City, Tokyo 108-0074, Japan",35.6284713,139.7387597
Tokyo,Japan,JP,35.685,139.7514,train station,ChIJkw7wvpGMGGAR5W5hbRuPKl0,Shinanomachi Station,"34 Shinanomachi, Shinjuku City, Tokyo 160-0016, Japan",35.6800602,139.7203199
Tokyo,Japan,JP,35.685,139.7514,train station,ChIJH7qx1tCMGGAR1f2s7PGhMhw,Shinjuku Station,"3 Chome-38-1 Shinjuku, Shinjuku City, Tokyo 160-0022, Japan",35.6896067,139.7005713
Tokyo,Japan,JP,35.685,139.7514,train station,ChIJC3Cf2PuLGGAROO00ukl8JwA,Tokyo Station,"1 Chome Marunouchi, Chiyoda City, Tokyo 100-0005, Japan",35.68123620000001,139.7671248
Tokyo,Japan,JP,35.685,139.7514,train station,ChIJ6RCyu_CJGGARN8lKFZBh6J4,Tokyo Teleport Station,"1 Chome Aomi, Koto City, Tokyo 135-0064, Japan",35.6275325,139.7788145
Tokyo,Japan,JP,35.685,139.7514,train station,ChIJwQ1Pvy6NGGARLG39QkbYBJ8,Ōkubo Station,"1 Chome-17-1 Hyakunincho, Shinjuku City, Tokyo 169-0073, Japan",35.7006865,139.697381
Amman,Jordan,JO,31.95,35.9333,fast food,ChIJNQ7TlaOhHBURgH4Ppl8NnbY,McDonald's,"McDonalds, Abdallah Ghosheh St. 104, Amman, Jordan",31.974351,35.854113
Amman,Jordan,JO,31.95,35.9333,train station,ChIJG9NJ4QJUGxUR_JWzrypSOBs,Queen Alia International Airport,"Alpha Building, 2nd Floor​ عمّان، 39052, Jordan",31.7222194,35.9864306
Nairobi,Kenya,KE,-1.2833,36.8167,fast food,ChIJOekzHIcWLxgR6RcmByR1OCg,KFC Drive-Thru,"Nairobi, Kenya",-1.2497516,36.8609588
Nairobi,Kenya,KE,-1.2833,36.8167,train station,ChIJCS8lOyERLxgRzVY5GhnOh7Q,Nairobi Railway Station,"Nairobi, Kenya",-1.2920408,36.8278871
Seoul,"Korea, South",KR,37.5663,126.9997,fast food,ChIJ9RQS8-GjfDURAo7_Lqb9Tr4,BURGER KING Gangnam KYOBO,"371 Sapyeong-daero, Banpo 1(il)-dong, Seocho-gu, Seoul, South Korea",37.5044877,127.0236057
Seoul,"Korea, South",KR,37.5663,126.9997,fast food,ChIJzeLfLOqifDURmV4voUqZQs8,Burger King,"57 Sambong-ro, Susong-dong, Jongno-gu, Seoul, South Korea",37.5725,126.9805556
Seoul,"Korea, South",KR,37.5663,126.9997,fast food,ChIJw3wDGsOYfDUR7xetCLuuyxk,Burger King,"34 Hongik-ro 6-gil, Seogyo-dong, Mapo-gu, Seoul, South Korea",37.5556741,126.9235585
Seoul,"Korea, South",KR,37.5663,126.9997,fast food,ChIJI1pEr-6ifDURFVz4okow7wA,KFC 청계천점,"35 Cheonggyecheon-ro, Seorin-dong, Jongno-gu, Seoul, South Korea",37.5692999,126.9813612
Seoul,"Korea, South",KR,37.5663,126.9997,fast food,ChIJPVJiTcOYfDURG7B5opzr2Sw,McDonald's,"140 Yanghwa-ro, Seogyo-dong, Mapo-gu, Seoul, South Korea",37.55507490000001,126.9219716
Seoul,"Korea, South",KR,37.5663,126.9997,fast food,ChIJ6Sjb23ekfDURZFGa3dof2wI,McDonald's,"407 Dosan-daero, Cheongdam-dong, Gangnam-gu, Seoul, South Korea",37.5235967,127.040298
Seoul,"Korea, South",KR,37.5663,126.9997,fast food,ChIJ2dv02O-ifDURr_mJyhANetk,McDonald's,"8 Myeongdong 7-gil, Myeongdong 1(il)-ga, Jung-gu, Seoul, South Korea",37.5641667,126.9844444
Seoul,"Korea, South",KR,37.5663,126.9997,fast food,ChIJyzH4k-2ifDURGou11BGU1w4,맥도날드 서울시청점,"51 Namdaemun-ro 9-gil, Euljiro 1(il)-ga, Jung-gu, Seoul, South Korea",37.5668126,126.9793305
Seoul,"Korea, South",KR,37.5663,126.9997,fast food,ChIJiSr3LzaifDURYFlDC8Smpjg,맥도날드 이태원점,"142-1 Itaewon-ro, Itaewon 1(il)-dong, Yongsan-gu, Seoul, South Korea",37.53392789999999,126.9897384
Seoul,"Korea, South",KR,37.5663,126.9997,train station,ChIJoQ4itdpgezURa8YqQZB09j0,Anyang Station,"232 Manan-ro, Anyang 1(il)-dong, Manan-gu, Anyang, Gyeonggi-do, South Korea",37.40149419999999,126.9230883
Seoul,"Korea, South",KR,37.5663,126.9997,train station,ChIJWwFkxqu2fDURxc9o-OQbK7I,Deokso Station,"Wabu-eup, Namyangju-si, South Korea",37.5870847,127.2085459
Seoul,"Korea, South",KR,37.5663,126.9997,train station,ChIJf5NKOWiffDURmAkuCCTe6Bg,Noryangjin Station,"Noryangjin-dong, Seoul, South Korea",37.51407,126.941673
Seoul,"Korea, South",KR,37.5663,126.9997,train station,ChIJJ2-bhmaifDURyz2zTy7_8S8,Seoul Station,"43-205 Dongja-dong, Yongsan-gu, Seoul, South Korea",37.5536067,126.9696195
Seoul,"Korea, South",KR,37.5663,126.9997,train station,ChIJcYLdx12efDURAXc6eqvj9RI,Sindorim Station,"117-21 Saemal-ro, Sindorim-dong, Guro-gu, Seoul, South Korea",37.5089886,126.8915114
Seoul,"Korea, South",KR,37.5663,126.9997,train station,ChIJDxUjqASifDURYoe1LjkFbE0,Yongsan Station,"Hangang-daero 23-gil, Hangangno 3(sam)-ga, Yongsan-gu, Seoul, South Korea",37.52989,126.964775
Seoul,"Korea, South",KR,37.5663,126.9997,train station,ChIJ6VuYeVO6fDURC2SC5ClMr5o,상봉역,"Sangbong 1(il)-dong, Seoul, South Korea",37.5972075,127.0858607
Kuwait City,Kuwait,KW,29.3697,47.9783,fast food,ChIJXcB44d6Ezz8RQi1VBqoPqpI,KFC Maliya,"Fahad Al-Salem Street, Kuwait City, Kuwait",29.3625689,47.964136
Kuwait City,Kuwait,KW,29.3697,47.9783,fast food,ChIJq0lJAoOEzz8RyQGu9GYk8cc,Mais Alghanim Restaurant,"Kuwait Kuwait city، 13012, Kuwait",29.3906158,47.9983101
Riga,Latvia,LV,56.95,24.1,fast food,ChIJD0lw9ETO7kYR3-q6QbkAQrA,Hesburger,"Dzelzavas iela 3, Vidzemes priekšpilsēta, Rīga, LV-1084, Latvia",56.96479919999999,24.1674867
Riga,Latvia,LV,56.95,24.1,fast food,ChIJhd1_2cfa7kYRThQux4R_Xt8,Hesburger,"Kurzemes prospekts 166, Kurzemes rajons, Rīga, LV-1029, Latvia",56.9537663,23.9982904
Riga,Latvia,LV,56.95,24.1,fast food,ChIJcy8tmNTP7kYRH0BPbxc85W0,Hesburger,"Stacijas laukums 2, Centra rajons, Rīga, LV-1050, Latvia",56.946827,24.1184078
Riga,Latvia,LV,56.95,24.1,fast food,ChIJpwurX3bQ7kYRJpk9NOnjUZw,McDonald's,"Kārļa Ulmaņa gatve 88A, Zemgales priekšpilsēta, Rīga, LV-1046, Latvia",56.9292089,24.0244059
Riga,Latvia,LV,56.95,24.1,fast food,ChIJZUZDSFPF7kYRjhCmv_Fst98,McDonald's,"Kurzemes prospekts 5-7, Kurzemes rajons, Rīga, LV-1067, Latvia",56.95902599999999,24.036168
Riga,Latvia,LV,56.95,24.1,fast food,ChIJR1fhaNPP7kYRuGn71tStK0g,McDonald's,"Merķeļa iela 1, Centra rajons, Rīga, LV-1050, Latvia",56.94833329999999,24.1197222
Riga,Latvia,LV,56.95,24.1,fast food,ChIJ04UVPtHP7kYRn_xgfdP4oyU,McDonald's,"Zigfrīda Annas Meierovica bulvāris 18, Centra rajons, Rīga, LV-1050, Latvia",56.9503999,24.1114272
Riga,Latvia,LV,56.95,24.1,fast food,ChIJje7KxhLO7kYRcjNm38HG2sI,McDonald's,"Gunāra Astras iela 17, Vidzemes priekšpilsēta, Rīga, LV-1082, Latvia",56.950321,24.1850683
Riga,Latvia,LV,56.95,24.1,fast food,ChIJ1c2JR6DO7kYRmq4OVfAHluE,McDonald's,"Brīvības gatve 434A, Vidzemes priekšpilsēta, Rīga, LV-1024, Latvia",56.989349,24.244178
Riga,Latvia,LV,56.95,24.1,fast food,ChIJPWp1LPvR7kYR3CcLBqjT0Kw,McDonald's,"Ģenerāļa Radziņa krastmala 101, Latgales priekšpilsēta, Rīga, LV-1019, Latvia",56.9240109,24.1626154
Riga,Latvia,LV,56.95,24.1,fast food,ChIJd4YJqqzR7kYRxSd5NSETldo,McDonald’s,"Vienības gat. 115A, Zemgales priekšpilsēta, Rīga, LV-1058, Latvia",56.9069444,24.0827777
Mexico City,Mexico,MX,19.4424,-99.131,train station,ChIJjUKlSNr40YUReWGDHYkbqKY,Estación Buenavista,"Colonia Buenavista, 06350 Mexico City, CDMX, Mexico",19.4471789,-99.1520707
Mexico City,Mexico,MX,19.4424,-99.131,train station,ChIJVRzWjmj40YURGzayHa3PHd8,Estación de Tren Suburbano Fortuna,"Eje 4 Nte. (Calz. Azcapotzalco la Villa), Estacion Pantaco, 02230 Ciudad de México, CDMX, Mexico",19.4919348,-99.1711926
Mexico City,Mexico,MX,19.4424,-99.131,train station,ChIJQf2B6NMBzoUR52rw_laxMtE,La Virgen,"Calz. de Tlalpan, Cd Jardín, 04370 Ciudad de México, CDMX, Mexico",19.3317039,-99.14062
Rabat,Morocco,MA,34.0253,-6.8361,train station,ChIJQ6lCXNhrpw0RAw8OKjU0s2c,Gare de Salé-Tabriquet,"Avenue 6 Novembre, Salé, Morocco",34.0523686,-6.805175200000001
Rabat,Morocco,MA,34.0253,-6.8361,train station,ChIJj0BfRItspw0R6SOCYy6gjJM,Rabat Agdal,"Avenue El Hadj Ahmed Charkaoui, Rabat, Morocco",34.0021353,-6.855586
Rabat,Morocco,MA,34.0253,-6.8361,train station,ChIJg0ZlY3hspw0R4LLmt70J1J0,Rabat Ville,"Ave Mohammed V, Rabat, Morocco",34.0164635,-6.8356942
Rabat,Morocco,MA,34.0253,-6.8361,train station,ChIJm837qMlrpw0RD_d0y-GoF9Q,Terminus Tramway Hassan II,"Avenue Hassan II, Salé, Morocco",34.0347038,-6.799735099999999
Rabat,Morocco,MA,34.0253,-6.8361,train station,ChIJveKzfNVrpw0RUuhJCkoBcD0,Terminus Tramway Hay Karima,"Avenue Mohamed V, Salé, Morocco",34.0543172,-6.7942876
Maputo,Mozambique,MZ,-25.9553,32.5892,fast food,ChIJUX6Qsryb5h4RpHQ0MrRz-n8,Mundo's Maputo Mozambique,"Av. Julius Nyerere, Maputo, Mozambique",-25.9743588,32.5938576
Maputo,Mozambique,MZ,-25.9553,32.5892,train station,ChIJdZGHJsqa5h4RspI0l6zML70,CFM,"Maputo, Mozambique",-25.9514897,32.5426143
Maputo,Mozambique,MZ,-25.9553,32.5892,train station,ChIJ23dTRBmb5h4RenAyMaQvBAs,Maputo Railway Station,"Maputo, Mozambique",-25.9710715,32.5643617
Amsterdam,Netherlands,NL,52.35,4.9166,train station,ChIJbQqgh5ALxkcRp2xSFzAVq7E,Amsterdam Bijlmer ArenA,"Hoekenrode 10A, 1102 BR Amsterdam, Netherlands",52.3116485,4.9476993
Amsterdam,Netherlands,NL,52.35,4.9166,train station,ChIJIxbYDbcJxkcRQtHfOo0b58o,Amsterdam Centraal,"Stationsplein, 1012 AB Amsterdam, Netherlands",52.3791283,4.900272
Amsterdam,Netherlands,NL,52.35,4.9166,train station,ChIJbWc4OXIJxkcRzgM5w2xUKQk,Amsterdam Muiderpoort,"Oosterspoorplein 3, 1093 JW Amsterdam, Netherlands",52.3609875,4.9311554
Amsterdam,Netherlands,NL,52.35,4.9166,train station,ChIJjZOjOfALxkcRfFdbttccPo8,Diemen Zuid,"1112 XC Diemen, Netherlands",52.3301835,4.955301800000001
Amsterdam,Netherlands,NL,52.35,4.9166,train station,ChIJMQ1P83rkxUcRX9XED05n88I,Halfweg-Zwanenburg,"1165 MJ Halfweg, Netherlands",52.38602419999999,4.7461422
Amsterdam,Netherlands,NL,52.35,4.9166,train station,ChIJg1a3vH8LxkcRrDD1q_t2y50,Station Holendrecht,"1105 AX Amsterdam, Netherlands",52.2982293,4.9599438
The Hague,Netherlands,NL,52.08,4.27,fast food,ChIJG4QtgiS3xUcReuQ2EC38yVA,KFC Spui,"Spui 2, 2511 BS Den Haag, Netherlands",52.0783976,4.3141978
The Hague,Netherlands,NL,52.08,4.27,fast food,ChIJ7ex5IXexxUcR-bBsJ6WBNYo,McDonald's,"De Werf 68, 2544 EK Den Haag, Netherlands",52.0430078,4.2420998
The Hague,Netherlands,NL,52.08,4.27,fast food,ChIJkVKUif22xUcRKtH8wwvyv8Y,McDonald's,"Binckhorstlaan 121, 2516 BA Den Haag, Netherlands",52.0690786,4.3363649
The Hague,Netherlands,NL,52.08,4.27,train station,ChIJfZDPwZW3xUcRrkdastct1UI,Den Haag Mariahoeve Station,"2272 TD Voorburg, Netherlands",52.0904214,4.369174699999999
Wellington,New Zealand,NZ,-41.3,174.7833,train station,ChIJS54pT25TP20RkJebJGLvAB0,Porirua Station,"Porirua City Centre, Porirua 5022, New Zealand",-41.1375725,174.8433759
Managua,Nicaragua,NI,12.152999999999999,-86.2685,train station,ChIJvweO1zH8c48RxLsJzSoXBwU,UNO-Waspan,"Panamericana Nte., Managua, Nicaragua",12.1489091,-86.2093369
Oslo,Norway,NO,59.9167,10.75,fast food,ChIJH2tgVX1uQUYRke8NNL5M0G8,Max,"Karl Johans gate 18C, 0159 Oslo, Norway",59.91275090000001,10.7417242
Oslo,Norway,NO,59.9167,10.75,fast food,ChIJUxh0cZVvQUYRW2uXBdcyoPw,McDonald's Alnabru,"Strømsveien 241A, 0668 Oslo, Norway",59.92472220000001,10.8436111
Oslo,Norway,NO,59.9167,10.75,fast food,ChIJUUE21_NvQUYR7Xq9vPza5wM,McDonald's Furuset,"Tevlingveien 17, 1081 Oslo, Norway",59.93078649999999,10.8686732
Oslo,Norway,NO,59.9167,10.75,fast food,ChIJE_AdPmJuQUYRnSsQ1Ns-9e8,McDonald's Storgata,"Storgata 15, 0155 Oslo, Norway",59.91352079999999,10.7496138
Oslo,Norway,NO,59.9167,10.75,fast food,ChIJ035g3WhuQUYRwfkgr5IxqcE,McDonald's Thv. Meyersgate,"Thorvald Meyers gate 35-41, 0555 Oslo, Norway",59.92500579999999,10.7590248
Oslo,Norway,NO,59.9167,10.75,fast food,ChIJTdo4U9ptQUYR01r-7uf4jWA,McDonald’s Majorstuen,"Valkyriegata 13, 0366 Oslo, Norway",59.9292973,10.7169874
Oslo,Norway,NO,59.9167,10.75,train station,ChIJ1b8zu6dvQUYR0xO8GMXWK8A,Bryn,"0667 Oslo, Norway",59.90835999999999,10.81861
Oslo,Norway,NO,59.9167,10.75,train station,ChIJGTcmyMdoQUYRZzSBCVNbSL0,Hauketo,"Nedre Prinsdals vei 5, 1069 Oslo, Norway",59.8462863,10.8032082
Oslo,Norway,NO,59.9167,10.75,train station,ChIJL0seFX5uQUYRcuvdXStVli8,Nationaltheatret stasjon,"Ruseløkkveien 1, 0251 Oslo, Norway",59.9147507,10.7303432
Oslo,Norway,NO,59.9167,10.75,train station,ChIJOT0lHIpuQUYR0lDolr7vaW0,Oslo Central Station,"Jernbanetorget 1, 0154 Oslo, Norway",59.91109599999999,10.7524574
Oslo,Norway,NO,59.9167,10.75,train station,ChIJyYnc6rNtQUYRJpKNR00W_8E,Skøyen stasjon,"0277 Oslo, Norway",59.92255909999999,10.6783786
Islamabad,Pakistan,PK,33.7,73.1666,fast food,ChIJaZUyZj6-3zgR0Xw7zvtDDj8,McDonald's,"Jinnah Avenue, F-9, Islamabad, Islamabad Capital Territory, Pakistan",33.6915372,73.0191789
Islamabad,Pakistan,PK,33.7,73.1666,train station,ChIJGwqaP72U3zgRuGoWx2kKuXU,Liaquat Bagh Metro Station,"H/33-B Murree Rd, Rawalpindi، H/33-B Benazir Bhutto Rd, Rawalpindi, Punjab, Pakistan",33.6058352,73.0657447
Islamabad,Pakistan,PK,33.7,73.1666,train station,ChIJ__9PEo-U3zgRptx2vYmahe0,Rawalpindi Railway Station,"Saddar, Rawalpindi, Punjab 46000, Pakistan",33.6038121,73.04812439999999
Lima,Peru,PE,-12.048,-77.0501,train station,ChIJZ-DUhBzIBZERKQ1PIf-w2rU,Benavides station Metropolitan,"Vía Expresa Paseo de la República, Miraflores 15047, Peru",-12.1252509,-77.0241423
Lima,Peru,PE,-12.048,-77.0501,train station,ChIJz94McEK4BZERZd0I2AVsU8c,Estacion Atocongo,"Lima District 15803, Peru",-12.150828,-76.9794379
Lima,Peru,PE,-12.048,-77.0501,train station,ChIJQVo3MQ-4BZERR4zQGt5xbwI,Estación Ayacucho,"Av. Tomas Marsano cruce con Av. Ayacucho, Cercado de Lima, Peru",-12.1347355,-76.99697789999999
Warsaw,Poland,PL,52.25,21.0,fast food,ChIJTR7dSIsyGUcRXtfTUyDvFzc,KFC,"Puławska 274C, 02-819 Warszawa, Poland",52.151812,21.0168189
Warsaw,Poland,PL,52.25,21.0,fast food,ChIJrcQC0VnLHkcRHcwrSIyLzDk,KFC BP Jerozolimskie,"al. Jerozolimskie 144c, 02-305 Warszawa, Poland",52.21522539999999,20.95621
Warsaw,Poland,PL,52.25,21.0,fast food,ChIJ895z37E0GUcRTuikP2xpJpg,KFC Makro,"al. Jerozolimskie 184, 02-486 Warszawa, Poland",52.2012083,20.9343822
Warsaw,Poland,PL,52.25,21.0,train station,ChIJf_eSVxwzGUcRC8F9uk8IZQo,Warszawa Okęcie,"00-999 Warsaw, Poland",52.1659162,20.9873791
Warsaw,Poland,PL,52.25,21.0,train station,ChIJjyAeWyMzGUcR4X3DRl9laeo,Warszawa Służewiec,"Warsaw, Poland",52.1802313,20.9870542
Warsaw,Poland,PL,52.25,21.0,train station,ChIJ1VcrDxLMHkcRHyfRH_7Esfg,Warszawa ZOO,"03-456 Warsaw, Poland",52.2636338,21.0181507
Warsaw,Poland,PL,52.25,21.0,train station,ChIJ_YbabpLMHkcRebwECet__eM,Warszawa Śródmieście W.K.D,"Warsaw, Poland",52.2278213,21.0010573
Lisbon,Portugal,PT,38.7227,-9.1449,fast food,ChIJxVIp3BQyGQ0RJmwftjojNHE,Burger King,"Av. Mal. Craveiro Lopes, Lisboa, Portugal",38.779856,-9.122333
Lisbon,Portugal,PT,38.7227,-9.1449,fast food,ChIJP0kobqAzGQ0RfwYE2F5j5OQ,McDonald's,"Av. da República 10F, 1050-191 Lisboa, Portugal",38.7354768,-9.144860699999999
Lisbon,Portugal,PT,38.7227,-9.1449,fast food,ChIJYe0qbXozGQ0RLtcOSx0Ryso,McDonald's,"R. Rodrigo da Fonseca 33-37, 1250-190 Lisboa, Portugal",38.7219327,-9.1525476
Lisbon,Portugal,PT,38.7227,-9.1449,fast food,ChIJkQC66KozGQ0RlBbNtEOl96E,McDonald's,"Praça Alvalade nº14 14A, 1700-038 Lisboa, Portugal",38.7529225,-9.143348999999999
Lisbon,Portugal,PT,38.7227,-9.1449,train station,ChIJjzkRhKQ0GQ0RUxmgyytT6BM,Alcantara-Mar,"Lisbon, Portugal",38.7024482,-9.1740969
Lisbon,Portugal,PT,38.7227,-9.1449,train station,ChIJW4MjK6E0GQ0RVVMlTHXxNUU,Alcantara-Terra,"Lisbon, Portugal",38.70743460000001,-9.1734137
Lisbon,Portugal,PT,38.7227,-9.1449,train station,ChIJedMC-j8zGQ0Rw9-mAjABqLQ,Campolide,"Calçada Estação, 1070-025 Lisboa, Portugal",38.7322745,-9.1681385
Lisbon,Portugal,PT,38.7227,-9.1449,train station,ChIJoS-cLQYzGQ0R2bLbRWARS3k,Entrecampos,"1050-065 Lisbon, Portugal",38.7445443,-9.1486702
Lisbon,Portugal,PT,38.7227,-9.1449,train station,ChIJCcgU0YcxGQ0RPnRwQXl7K74,Estação do Oriente,"Av. Dom João II, 1900-233 Lisboa, Portugal",38.7678423,-9.0993449
Lisbon,Portugal,PT,38.7227,-9.1449,train station,ChIJO41ppAo0GQ0RCSkBTGuQ1Uc,Lisboa Santa Apolónia,"Av. Infante Dom Henrique 1, 1100-105 Lisboa, Portugal",38.7141366,-9.1225711
Lisbon,Portugal,PT,38.7227,-9.1449,train station,ChIJ_ZgV7K8zGQ0RPM39A_id1zg,Roma-Areeiro,"Lisbon, Portugal",38.7456843,-9.1357342
Lisbon,Portugal,PT,38.7227,-9.1449,train station,ChIJtRNGuIAzGQ0RhsoDyDD_gr0,Rossio - Lisboa,"R. 1º de Dezembro 125, 1249-970 Lisboa, Portugal",38.7144118,-9.1408772
Lisbon,Portugal,PT,38.7227,-9.1449,train station,ChIJ7TndzRczGQ0RIS4hn7YXsAo,Sete Rios,"1500-561 Lisbon, Portugal",38.7402436,-9.1666527
Doha,Qatar,QA,25.2866,51.533,fast food,ChIJHS-Q0MnaRT4RcDS8MweA410,Burger King,"C Ring Rd, Doha, Qatar",25.2767696,51.507637
Doha,Qatar,QA,25.2866,51.533,fast food,ChIJ6RlVF3jPRT4RgZOa9WI5qRw,KFC Airport دجاج كنتاكي,"Airport Road, Doha, Qatar",25.2611749,51.5580574
Doha,Qatar,QA,25.2866,51.533,fast food,ChIJYbUJCHjaRT4RLQJWoHMRjz8,McDonald's,"Al Jazeera Petrol Station, Salwa Road,, Doha, Qatar",25.2426647,51.4630974
Doha,Qatar,QA,25.2866,51.533,fast food,ChIJE8dD_93ORT4Rg9ux70Rk5-I,McDonald's,"00974, Airport Road Al Matar St, Doha, Qatar",25.2614853,51.5576464
Bucharest,Romania,RO,44.4334,26.0999,fast food,ChIJx137ydT4sUARUdaFVOmIsUs,Calif,"Strada Avrig 63, București 030167, Romania",44.4415553,26.1342283
Bucharest,Romania,RO,44.4334,26.0999,fast food,ChIJn2VLAAX_sUARXqCxghQgN3s,Dristor Doner Kebap,"Bulevardul Dimitrie Cantemir 22, București, Romania",44.4170052,26.1039557
Bucharest,Romania,RO,44.4334,26.0999,fast food,ChIJgbsbI-j-sUARTIuiZ71NE20,Dristor Kebap,"Bulevardul camil ressu, sector 3 2 A, București 011135, Romania",44.420361,26.1374459
Bucharest,Romania,RO,44.4334,26.0999,fast food,ChIJxYMUfeECskARPmRj4loGpy8,KFC drive Baneasa,"Șoseaua București-Ploiești 42-44, București 013696, Romania",44.50776860000001,26.0846732
Bucharest,Romania,RO,44.4334,26.0999,fast food,ChIJBdq2XOj-sUAR7m-KSfk6tHs,McDonald's,"Șoseaua Mihai Bravu 307, București 030307, Romania",44.4196234,26.1370527
Bucharest,Romania,RO,44.4334,26.0999,fast food,ChIJ7Qufck7_sUAR9z7Pnf_7c0w,McDonald's,"Bulevardul General Gheorghe Magheru 24A, București 030167, Romania",44.44452159999999,26.0983322
Bucharest,Romania,RO,44.4334,26.0999,fast food,ChIJ15JhuRX_sUARDJQwuTtg3Mg,McDonald's Unirea,"McDonald's 78, Unirea Shopping Center 0034, Piața Unirii 1, București 030119, Romania",44.4285225,26.1042763
Bucharest,Romania,RO,44.4334,26.0999,fast food,ChIJjQ8ef0kAskAR1BLx1SqcRPc,Primo Fast Food,"Drumul Taberei 70, București 061366, Romania",44.4235169,26.024695
Bucharest,Romania,RO,44.4334,26.0999,train station,ChIJ5eY1-PABskARe-TUDiESMPU,Bucuresti Nord,"Bucharest, Romania",44.450329,26.067586
Moscow,Russia,RU,55.7522,37.6155,train station,ChIJ5ecq-yNKtUYRCLVHR4Lb9aw,Belorussky Station,"Tverskaya Zastava Square, 7, Moscow, Russia, 125047",55.77691300000001,37.581465
Moscow,Russia,RU,55.7522,37.6155,train station,ChIJT3Yt8RmySkERh6HIH47ayT4,Biryulevo-Tovarnaya Station,"Moscow, Russia, 117546",55.5933349,37.653714
Moscow,Russia,RU,55.7522,37.6155,train station,ChIJt4xLHG41tUYRiSfFG5faVeU,Elektrozavodskaya Station,"Moscow, Russia, 107023",55.7811743,37.7050092
Moscow,Russia,RU,55.7522,37.6155,train station,ChIJP9wms35KtUYRyR9W-WSew8I,Kazansky railway station,"Komsomolskaya Square, 2, Moscow, Russia, 107140",55.7736033,37.6567589
Moscow,Russia,RU,55.7522,37.6155,train station,ChIJs2qGjLhLtUYRJECzgKufk7w,Kiyevsky railway station,"Kiyevsky Station Square, 1, Moscow, Russia, 121059",55.7430872,37.5667304
Moscow,Russia,RU,55.7522,37.6155,train station,ChIJh7F8wY1KtUYRUq6QkiXnA6k,Kurskaya,"Ploshchad' Kurskogo Vokzala, Moscow, Russia, 105064",55.7574935,37.6611133
Moscow,Russia,RU,55.7522,37.6155,train station,ChIJy6SWFIxKtUYRzEoB9-Gx2s0,Kurskiy Railway Station,"Moscow, Russia, 105064",55.75806799999999,37.6573369
Moscow,Russia,RU,55.7522,37.6155,train station,ChIJNdpAV3hKtUYRrb_H0K9iKYU,Leningradskiy Railway Station,"Komsomolskaya Square, 3, Moscow, Russia, 107140",55.7760848,37.655356
Moscow,Russia,RU,55.7522,37.6155,train station,ChIJXS1047hKtUYR5vTh7meIqUY,MCD Moskva-Tovarnaya,"Moscow, Russia, 109544",55.7452407,37.6885679
Moscow,Russia,RU,55.7522,37.6155,train station,ChIJw24OER9LtUYRcMtYzQ5wtoI,Moscow Paveletsky,"Paveletskaya Ploshchad', 1, Moscow, Russia, 102151",55.72971450000001,37.63938350000001
Moscow,Russia,RU,55.7522,37.6155,train station,ChIJ3R8ekfY1tUYR1WIMBVBK8Qs,Rizhsky Railway Station,"Moscow, Russia, 129272",55.79259769999999,37.63258250000001
Moscow,Russia,RU,55.7522,37.6155,train station,ChIJx-ZvlWNJtUYRqrWS2gzLSO8,Shelepikha,"Moscow, Russia, 123290",55.7566971,37.525776
Moscow,Russia,RU,55.7522,37.6155,train station,ChIJyeARbxy1SkERTcz7Yhe_u0c,Tekstiljschiki,"Moscow, Russia, 109125",55.7070644,37.7297512
Moscow,Russia,RU,55.7522,37.6155,train station,ChIJ2Wzi13hKtUYRqm9hQHUX0Ng,Yaroslavskiy Railway Terminal,"Komsomolskaya Square, 5, Moscow, Russia, 107140",55.7767911,37.6572732
Novosibirsk,Russia,RU,55.05,82.95,fast food,ChIJCxQ-323m30IRXscKt_pjb4g,Macdonalds,"Bol'shevistskaya Ulitsa, 43/1, Novosibirsk, Novosibirsk Oblast, Russia, 630102",55.0084552,82.93693999999999
Novosibirsk,Russia,RU,55.05,82.95,train station,ChIJP3zp0zbk30IRz7GuOVJvbbU,Novosibirsk Main Railway Station,"Ulitsa Shamshurina, дом 43, Novosibirsk, Novosibirsk Oblast, Russia, 630004",55.035705,82.896254
Novosibirsk,Russia,RU,55.05,82.95,train station,ChIJOR_VjErh30IRB15JlW8BtwU,Novosibirsk-Zapadny,"Novosibirsk, Novosibirsk Oblast, Russia, 630108",54.99529,82.85453
Novosibirsk,Russia,RU,55.05,82.95,train station,ChIJE5athG3m30IReJmBsap-AUc,Platform Riverport,"Ulitsa Zyryanovskaya, 34/1, Novosibirsk, Novosibirsk Oblast, Russia, 630009",55.009445,82.9395029
Novosibirsk,Russia,RU,55.05,82.95,train station,ChIJrzqsApzD30IR_byzE_t65PY,Seyatel,"Novosibirsk, Novosibirsk Oblast, Russia, 630055",54.86882,83.07745
Saint Petersburg,Russia,RU,59.9375,30.308611,fast food,ChIJm8jf_w8xlkYRhyUym0Y4pOY,McDonald's,"Bol'shaya Morskaya Ulitsa, 11, лит.А, St Petersburg, Russia, 191186",59.9355328,30.316347
Saint Petersburg,Russia,RU,59.9375,30.308611,fast food,ChIJPXQ-kg8xlkYRrhPe-M0FGn8,Teremok,"Liteyniy Ave, 22, St Petersburg, Russia, 191028",59.9429937,30.3488419
Saint Petersburg,Russia,RU,59.9375,30.308611,train station,ChIJt0t3ncEvlkYRJhV-X_038qw,Farforovskaya,"St Petersburg, Russia, 192236",59.8783586,30.4089826
Saint Petersburg,Russia,RU,59.9375,30.308611,train station,ChIJ6d_d6nkxlkYRTZXHICjNnGw,Finlyandskiy Railway Station,"St Petersburg, Russia, 195009",59.95435729999999,30.3568042
Saint Petersburg,Russia,RU,59.9375,30.308611,train station,ChIJS4jfNB0ulkYR8eK001vh9rs,Ladozhskiy Vokzal,"Zanevskiy Prospekt, 73, St Petersburg, Russia, 195277",59.9315294,30.44160759999999
Saint Petersburg,Russia,RU,59.9375,30.308611,train station,ChIJ_X2vWqIxlkYRxd9qpgHBZOU,Moscow Station,"Nevsky Ave, 85, St Petersburg, Leningrad Oblast, Russia, 191036",59.92991230000001,30.3622406
Saint Petersburg,Russia,RU,59.9375,30.308611,train station,ChIJV2jv6VQwlkYR95XpkBuir6I,Vitebsky railway station,"Zagorodnyy Prospekt, 52, St Petersburg, Russia, 190013",59.91967529999999,30.3294997
Kigali,Rwanda,RW,-1.9536,30.0605,fast food,ChIJk3dxJVSm3BkRf3d_22gSAMc,Canaberra,"KG 1 Ave, Kigali, Rwanda",-1.9608763,30.1076438
Kigali,Rwanda,RW,-1.9536,30.0605,train station,ChIJ1XpB-Zan3BkR4v5rKXK660U,Kigali International Airport,"KN 5 Rd, Kigali, Rwanda",-1.9630791,30.1350038
Kigali,Rwanda,RW,-1.9536,30.0605,train station,ChIJpf5fPhWk3BkRjFCF57tudfI,Nyabugogo Taxi Park,"Boulevard de Nyabugoro, Kigali, Rwanda",-1.9408422,30.0444955
Riyadh,Saudi Arabia,SA,24.6408,46.7727,fast food,ChIJ4f_jAHahLz4RjpBBdGvaokI,McDonald's,Industiral city of Riyadh، Riyadh Saudi Arabia,24.5533725,46.8887033
Riyadh,Saudi Arabia,SA,24.6408,46.7727,fast food,ChIJoZo0IWsELz4R3EmsEb_9WlA,McDonald's,"Sitteen, Salahddine Street Intersection with Jareer Street, Ad Dubbat، Ad Dhubbat, Riyadh 12627, Saudi Arabia",24.6703957,46.7276071
Riyadh,Saudi Arabia,SA,24.6408,46.7727,fast food,ChIJTVw4XEr9Lj4RryN9NjAX0DE,McDonald's,"Ibn Sina, ، المصيف، Riyadh 12467, Saudi Arabia",24.7614795,46.6734942
Riyadh,Saudi Arabia,SA,24.6408,46.7727,fast food,ChIJjd5mTN_9Lj4Rh13xrzdXJb8,Welcome Fast Food,"2689 Abi Jafar Al Mansour St, Ghirnatah, Riyadh 13242, Saudi Arabia",24.7937182,46.746997
Dakar,Senegal,SN,14.7158,-17.4731,fast food,ChIJnTakeM1ywQ4R-IsJECDbAh8,La Brioche Dorée,"Route du Front de Terre, Dakar, Senegal",14.7269444,-17.4444444
Belgrade,Serbia,RS,44.8186,20.468,fast food,ChIJI7V2R7N6WkcR45KRY44Kzy4,KFC Studentski Trg,"Vase Čarapića 24, Beograd 105905, Serbia",44.818438,20.458425
Belgrade,Serbia,RS,44.8186,20.468,fast food,ChIJH68XrnVvWkcRs5WO9M71NBI,McDonald's Piramida,"Jurija Gagarina 153, Beograd 11000, Serbia",44.8021328,20.3855543
Belgrade,Serbia,RS,44.8186,20.468,train station,ChIJ24YBgxBwWkcRgRReQKdgPIU,BELGRADE CENTER-Prokop (BEOGRAD CENTAR-Prokop),"Belgrade, Serbia",44.79360519999999,20.4533295
Belgrade,Serbia,RS,44.8186,20.468,train station,ChIJM-XKkxBwWkcRjXcd-Gu-c_s,Belgrade Centre railway station,"Belgrade, Serbia",44.7927372,20.4538098
Belgrade,Serbia,RS,44.8186,20.468,train station,ChIJm7RwjOBtWkcRVLFfotqu4ps,Belgrade Marshaling Yard,"Belgrade, Serbia",44.7389635,20.378606
Belgrade,Serbia,RS,44.8186,20.468,train station,ChIJFf7eRr96WkcR-svZ4I9r0MY,Železnička stanica Beograd Dunav,"Poenkareova 39, Beograd 11000, Serbia",44.8192456,20.4805675
Singapore,Singapore,SG,1.2930000000000001,103.8558,fast food,ChIJwWAbzA4Z2jERdkEry5RFyJk,Burger King,"30 Raffles Place, 01-01 / 02, Singapore 048622",1.2843331,103.8523732
Singapore,Singapore,SG,1.2930000000000001,103.8558,fast food,ChIJhbR_nXgX2jER_55U4lm-RTk,McDonald's,"148 Potong Pasir Ave 1, #01-43, Singapore 350148",1.3328,103.8680073
Singapore,Singapore,SG,1.2930000000000001,103.8558,fast food,ChIJfyzyWto92jERJ1G6w_pk-Vs,McDonald's Changi Airport T3,"65 Airport Blvd, Singapore 819663",1.355268,103.9864349
Singapore,Singapore,SG,1.2930000000000001,103.8558,fast food,ChIJL2u2o7YX2jERLceCHtqWtbg,McDonald’s,"208 Hougang Street 21, #01-217, Singapore 530208",1.3584825,103.8863373
Singapore,Singapore,SG,1.2930000000000001,103.8558,fast food,ChIJ4VNxIMYZ2jER2gBSZpDf1aw,McDonald’s,"180 Kitchener Rd, Singapore 208539",1.3117115,103.8563549
Singapore,Singapore,SG,1.2930000000000001,103.8558,fast food,ChIJWT0bvgsZ2jERM7sHz6m87gE,McDonald’s Boat Quay,"1 S Canal Rd, Singapore 048508",1.2857571,103.8497842
Singapore,Singapore,SG,1.2930000000000001,103.8558,fast food,ChIJz-oM7SMY2jERVN3YVne0R-w,McDonald’s Geylang East Central,"113 Aljunied Ave 2, #01-01, Singapore 380113",1.3204231,103.8858185
Singapore,Singapore,SG,1.2930000000000001,103.8558,fast food,ChIJUZ8cpagZ2jERjw26UPWvSTY,McDonald’s Suntec City,"3 Temasek Boulevard #02-732/733 Suntec City Mall, Singapore 038983",1.2948099,103.8599786
Singapore,Singapore,SG,1.2930000000000001,103.8558,train station,ChIJF7Q9Fow82jERNvbZPNr07Xo,Changi Airport,"70 Airport Blvd, Singapore 819661",1.3576001,103.9884873
Singapore,Singapore,SG,1.2930000000000001,103.8558,train station,ChIJV7-4pucS2jERRRaKHQzBFwc,JB Sentral,"Jalan Tun Abdul Razak, Bandar Johor Bahru, 80000 Johor Bahru, Johor, Malaysia",1.462983,103.7646849
Singapore,Singapore,SG,1.2930000000000001,103.8558,train station,ChIJIUAOrf4S2jERFKsxkQNqw9E,Woodlands Train Checkpoint,Singapore,1.443708,103.7695213
Bratislava,Slovakia,SK,48.15,17.117,fast food,ChIJWzC2Tm2JbEcRDGrPTYUma8E,KFC,"OC Relaxx, Einsteinova 7, 851 01 Petržalka, Slovakia",48.1308589,17.115883
Bratislava,Slovakia,SK,48.15,17.117,train station,ChIJyzWcS1SJbEcRukJHAenx9q0,Bratislava Hlavná Stanica,"Námestie Franza Liszta, 811 04 Staré Mesto, Slovakia",48.1586849,17.1063664
Bratislava,Slovakia,SK,48.15,17.117,train station,ChIJf8XvN1SJbEcRv8vH-dz766E,Hlavná stanica,"811 04 Bratislava, Slovakia",48.1579933,17.1062718
Bratislava,Slovakia,SK,48.15,17.117,train station,ChIJ9aDInpqObEcRjliKJbq4URg,Vinohrady,"831 02 Nové Mesto, Slovakia",48.1868475,17.1338485
Ljubljana,Slovenia,SI,46.0553,14.515,train station,ChIJ1w6fc5wyZUcRoFDASB300Fo,Bus Station Ljubljana,"Trg Osvobodilne fronte 4, 1000 Ljubljana, Slovenia",46.0577449,14.5095311
Ljubljana,Slovenia,SI,46.0553,14.515,train station,ChIJ49F7S2ItZUcRSrMN8zPITvE,Dragon Bridge,"Resljeva cesta 2, 1000 Ljubljana, Slovenia",46.0518861,14.5103793
Ljubljana,Slovenia,SI,46.0553,14.515,train station,ChIJUXMVQZsyZUcRl0PvVcoUDrc,Ljubljana train station,"Trg Osvobodilne fronte 7, 1000 Ljubljana, Slovenia",46.05822999999999,14.5122127
Madrid,Spain,ES,40.4,-3.6834,fast food,ChIJLaZF__8oQg0RegN9Ihl26I8,KFC - Abierto sólo Envío a Domicilio,"Calle de Bravo Murillo, 168, 28020 Madrid, Spain",40.453317,-3.702822
Madrid,Spain,ES,40.4,-3.6834,train station,ChIJO2EuJXomQg0RNrajmkhsmns,Asamblea de Madrid-Entrevías,"28018 Madrid, Spain",40.3816903,-3.6679811
Madrid,Spain,ES,40.4,-3.6834,train station,ChIJhz0mgDAmQg0ROg1Hq25ND00,Delicias Train Station,"28045 Madrid, Spain",40.4003907,-3.6927656
Madrid,Spain,ES,40.4,-3.6834,train station,ChIJ_RDaRE0pQg0RMVyzc4rP1EI,Fuente de la Mora,"Calle de Dulce Chacón, 28050 Madrid, Spain",40.4846941,-3.663137
Madrid,Spain,ES,40.4,-3.6834,train station,ChIJBwKCjxQmQg0RTAQ56z4i-pU,Méndez Álvaro South Station,"Calle de Méndez Álvaro, 28045 Madrid, Spain",40.3957289,-3.6778369
Madrid,Spain,ES,40.4,-3.6834,train station,ChIJNXVEsdQmQg0RDh4k2OgMMTo,San Cristobal Industrial,"28021 Madrid, Spain",40.3316968,-3.6994234
Stockholm,Sweden,SE,59.3508,18.0973,fast food,ChIJm-_p62CdX0YRsh2ILhG_NyA,Max,"Vasagatan 7, 111 20 Stockholm, Sweden",59.3322947,18.0573847
Stockholm,Sweden,SE,59.3508,18.0973,fast food,ChIJH6vm-VudX0YRovHeujG8M9g,Max,"Kungsträdgårdsgatan 20, 111 47 Stockholm, Sweden",59.33267779999999,18.0720781
Stockholm,Sweden,SE,59.3508,18.0973,fast food,ChIJXT4CW_t3X0YR4YDzP3MDw-U,McDonald s,"Katarinavägen 1-3, 116 45 Stockholm, Sweden",59.31962100000001,18.0732064
Stockholm,Sweden,SE,59.3508,18.0973,fast food,ChIJC6fXzWadX0YRl4iHv5402OA,McDonald's,"Vasagatan 24, 111 20 Stockholm, Sweden",59.3313688,18.0589158
Stockholm,Sweden,SE,59.3508,18.0973,fast food,ChIJvy-y53udX0YRThPUMULJ8Gg,McDonald's,"Sankt Eriksgatan 32, 112 34 Stockholm, Sweden",59.33352689999999,18.0322343
Stockholm,Sweden,SE,59.3508,18.0973,fast food,ChIJQZBrVE6dX0YRD3b_ox4ya_Y,McDonald's,"Karlaplan 13, 115 20 Stockholm, Sweden",59.33903530000001,18.0907388
Stockholm,Sweden,SE,59.3508,18.0973,fast food,ChIJ4cfQ4G6dX0YRiJPR3Bwyddw,McDonald's,"Sveavägen 71, 113 50 Stockholm, Sweden",59.34325680000001,18.0558345
Stockholm,Sweden,SE,59.3508,18.0973,train station,ChIJeU4NfGCdX0YRuLBz4xDgRa8,Stockholm City,"111 20 Stockholm, Sweden",59.3301694,18.0581951
Stockholm,Sweden,SE,59.3508,18.0973,train station,ChIJbfIC9mCdX0YRPbpyttpTxZc,Stockholms Centralstation,"Centralplan 15, 111 20 Stockholm, Sweden",59.33066849999999,18.0579323
Stockholm,Sweden,SE,59.3508,18.0973,train station,ChIJf4Opke93X0YRWwXHhAIPd4Q,Stockholms södra,"118 28 Stockholm, Sweden",59.3140412,18.0642619
Taipei,Taiwan,TW,25.0358,121.5683,fast food,ChIJu981XwupQjQR1xGJHf169TU,Burger King Guanghua,"No. 31號, Section 1, Bade Road, Zhongzheng District, Taipei City, Taiwan 100",25.0441339,121.5314329
Taipei,Taiwan,TW,25.0358,121.5683,fast food,ChIJ6fT12YupQjQRxhugLfbofCw,KFC,"No. 96-1, Section 3, Xinsheng South Road, Da’an District, Taipei City, Taiwan 106",25.017121,121.5331512
Taipei,Taiwan,TW,25.0358,121.5683,fast food,ChIJzxoI9wipQjQRGFeS1blKsFY,KFC Taipei Emei,"108, Taiwan, Taipei City, Wanhua District, 峨嵋街14-16號",25.0433561,121.5071455
Taipei,Taiwan,TW,25.0358,121.5683,fast food,ChIJ_VdWAvipQjQR2fQbKvYFlKA,KFC Taipei Nanchang,"No. 12號, Section 1, Nanchang Road, Zhongzheng District, Taipei City, Taiwan 100",25.0323217,121.516318
Taipei,Taiwan,TW,25.0358,121.5683,fast food,ChIJsU7P5q-uQjQRphaXUWBJjQM,KFC Taipei Tianmu,"No. 748, Section 6, Zhongshan North Road, Shilin District, Taipei City, Taiwan 111",25.115641,121.5282538
Taipei,Taiwan,TW,25.0358,121.5683,fast food,ChIJc9xR1wipQjQRiQ65xIJgq7k,McDonald's,"No. 92之4號, Kunming Street, Wanhua District, Taipei City, Taiwan 108",25.0447972,121.50525
Taipei,Taiwan,TW,25.0358,121.5683,fast food,ChIJ-Y7icHOpQjQR3yT-dkq4-fE,McDonald's,"No. 8號, Guanqian Road, Zhongzheng District, Taipei City, Taiwan 100",25.0458908,121.5148544
Taipei,Taiwan,TW,25.0358,121.5683,fast food,ChIJ-Y7icHOpQjQRsQCAcFtswBE,McDonald's,"No. 66, Section 2, Jinan Road, Zhongzheng District, Taipei City, Taiwan 100",25.0400268,121.5324778
Taipei,Taiwan,TW,25.0358,121.5683,fast food,ChIJ5Zls-surQjQRuwJq1J8WCts,McDonald's,"106, Taiwan, Taipei City, Da’an District, Section 4, Zhongxiao East Road, 73號之一號",25.0417681,121.5469743
Taipei,Taiwan,TW,25.0358,121.5683,fast food,ChIJjfzEsLCrQjQRN8ctcgH9pxQ,McDonald's Taipei Zhuangjing,"No. 475號, Zhuangjing Road, Xinyi District, Taipei City, Taiwan 110",25.0268222,121.5682258
Taipei,Taiwan,TW,25.0358,121.5683,fast food,ChIJT4h3YIauQjQR8hroZGsxIjQ,Texas Rangers Fried Chicken,"No. 752號, Section 6, Zhongshan North Road, Shilin District, Taipei City, Taiwan 111",25.1156865,121.5282993
Taipei,Taiwan,TW,25.0358,121.5683,train station,ChIJJ5-ebvtRXTQRwcbqpfE1J98,Badu Station,"205, Taiwan, Keelung City, Nuannuan District",25.1083766,121.7290366
Taipei,Taiwan,TW,25.0358,121.5683,train station,ChIJFxRFQhmoQjQRpQVZ5mKVZnY,Banqiao Station,"No. 7, Section 2, Xianmin Boulevard, Banqiao District, New Taipei City, Taiwan 220",25.0141846,121.4637528
Taipei,Taiwan,TW,25.0358,121.5683,train station,ChIJK17Q2BROXTQRUAheqvBKqj4,Keelung Station,"No. 5, Gangxi Street, Ren’ai District, Keelung City, Taiwan 200",25.1317072,121.738296
Taipei,Taiwan,TW,25.0358,121.5683,train station,ChIJ94RIZj4daDQR2LL1hFBUUrk,Shulin Station,"號, No. 112, Zhenqian Street, Shulin District, New Taipei City, Taiwan 238",24.9913972,121.4244296
Taipei,Taiwan,TW,25.0358,121.5683,train station,ChIJaQL2pJ6rQjQR-w0i3CwUrxo,Songshan Station,"No. 11號, Songshan Rd, Songshan District, Taipei City, Taiwan 105",25.049284,121.5782834
Taipei,Taiwan,TW,25.0358,121.5683,train station,ChIJlWImqHKpQjQREk5-6lec4-w,Taipei Main Station,"No. 8號, Zhengzhou Road, Zhongzheng District, Taipei City, Taiwan 100",25.048738,121.514221
Taipei,Taiwan,TW,25.0358,121.5683,train station,ChIJCZEzfnKpQjQRy75KOs4xSsM,Taipei Station,"Taiwan, Taipei City, Zhongzheng District, Beiping West Road, 3號100臺灣",25.047702,121.5173735
Taipei,Taiwan,TW,25.0358,121.5683,train station,ChIJAQAAfHKpQjQRImBybm0wC9s,Taiwan High Speed Rail Taipei Station,"No. 3號, Beiping West Road, Zhongzheng District, Taipei City, Taiwan 100",25.047702,121.5173735
Taipei,Taiwan,TW,25.0358,121.5683,train station,ChIJ63qcdUNTXTQRK7ndXfx-mtQ,Xike Station,"221, Taiwan, New Taipei City, Xizhi District",25.0626721,121.6466498
Taipei,Taiwan,TW,25.0358,121.5683,train station,ChIJI8dfvRJTXTQRJ-VVApF9XSY,Xizhi Station,"No. 1, Xinyi Road, Xizhi District, New Taipei City, Taiwan 221",25.0679525,121.6612198
Bangkok,Thailand,TH,13.75,100.5166,fast food,ChIJjZNaldqe4jARkkMFWvdpRCM,Burger King,"1, Nana Square, 49 Sukhumvit, Klongtoey-nua, Wattana, Bangkok 10110, Thailand",13.7426136,100.5525938
Bangkok,Thailand,TH,13.75,100.5166,fast food,ChIJBzEebCuf4jARIAPME2nv0-o,Burger King,"50 Thanon Surawong, Khwaeng Si Phraya, Bang Rak, Bangkok 10500, Thailand",13.7300046,100.5313782
Bangkok,Thailand,TH,13.75,100.5166,fast food,ChIJOwam5IWe4jARmMnUFV-s0iY,Burger King - The Street Ratchada,"139 Ratchadaphisek Rd, Din Daeng, Bangkok 10400, Thailand",13.769955,100.57213
Bangkok,Thailand,TH,13.75,100.5166,fast food,ChIJ9bT1nxSZ4jARwm-mmZPS82Y,McDonald's Ratchadamnoen,"77/1 Ratchadamnoen Avenue, Wat Bowon Niwet, Phra Nakhon, Bangkok 10200, Thailand",13.7573376,100.5016396
Bangkok,Thailand,TH,13.75,100.5166,train station,ChIJA8tiM2GC4jAR11SlhoI5uxg,Don Muang,"Sanambin, Don Mueang, Bangkok 10210, Thailand",13.9201734,100.6013042
Bangkok,Thailand,TH,13.75,100.5166,train station,ChIJ0W-o4shhHTERnJ2pzeFUpTY,Hua Mak Railway Station,"Suan Luang, Bangkok 10250, Thailand",13.73823,100.6397875
Bangkok,Thailand,TH,13.75,100.5166,train station,ChIJazRmjUWe4jARdbZyoaroD3A,Khlong Tan,"Bang Kapi, Huai Khwang, Bangkok 10310, Thailand",13.744097,100.5896845
Bangkok,Thailand,TH,13.75,100.5166,train station,ChIJL7Fxtqqe4jAR2CSEysTEArU,Sam Sen,"Samsen Nai, Phaya Thai, Bangkok 10400, Thailand",13.7794972,100.5300515
Bangkok,Thailand,TH,13.75,100.5166,train station,ChIJhY0NpfCY4jAR49laFyQTeaA,Wongwian Yai Station,"Bang Yi Ruea, Thon Buri, Bangkok 10600, Thailand",13.7245782,100.4919146
Bangkok,Thailand,TH,13.75,100.5166,train station,ChIJ77QXyEmZ4jARePAAXJnlXjQ,Yommarat Railway Station,"Sawankhalok Road , Suan Chitlada , 10300 Dusit , Bangkok, Thailand",13.7581785,100.5212739
Ankara,Turkey,TR,39.9272,32.8644,train station,ChIJMWxAHfBO0xQRhK0Cvi4zaVY,Ankara Train Station,"Eti Mahallesi, Celal Bayar Bulvarı No:78, 06930 Çankaya/Altındağ/Ankara, Turkey",39.9348529,32.8435392
Ankara,Turkey,TR,39.9272,32.8644,train station,ChIJ3WuFLlY30xQRPRNy_RdnF28,Eryaman YHT,"Etiler, 06796 Etimesgut/Ankara, Turkey",39.9557497,32.6304117
Istanbul,Turkey,TR,41.013611,28.955,fast food,ChIJKUKiUgnHyhQRkqovkKIIOuc,Kızılkayalar Hamburger,"Suadiye Mahallesi, Bağdat Cd. 367b, 34740 Kadıköy/İstanbul, Turkey",40.963085,29.0758935
Istanbul,Turkey,TR,41.013611,28.955,train station,ChIJPywA28qjyhQRDt3ogKG-PAg,Florya Train Station,"Basınköy, Florya Cd., 34153 Bakırköy/İstanbul, Turkey",40.9723848,28.7892578
Istanbul,Turkey,TR,41.013611,28.955,train station,ChIJabTPwEO4yhQRR8iBhvQapEo,Haydarpasa Train Station,"Rasimpaşa, 34716 Kadıköy/İstanbul, Turkey",40.9968247,29.0192939
Istanbul,Turkey,TR,41.013611,28.955,train station,ChIJHfgwy67GyhQRivF_GCZITl4,Maltepe Train Station,"Merkez, Maltepe Merkez, Maltepe, İstanbul, Turkey",40.92072,29.13322
Istanbul,Turkey,TR,41.013611,28.955,train station,ChIJU8DGl5i7yhQR1McRTLdKhMc,Marmaray Kazlıçeşme İstasyonu,"Kazlıçeşme, Zakirbaşı Sk., 34020 Zeytinburnu/İstanbul, Turkey",40.992656,28.9169721
Istanbul,Turkey,TR,41.013611,28.955,train station,ChIJK-bJD8G5yhQRDb9gQ9EVkpY,Marmaray Sirkeci İstasyonu,"Hocapaşa Mahallesi Ankara Cadddesi,Halil Lütfü 4. İş Merkezi K: 1 No:113,Hoca Paşa,, 34110 Fatih/İstanbul, Turkey",41.014974,28.97646499999999
Izmir,Turkey,TR,38.42,27.14,fast food,ChIJp_fWT9vZuxQRng6Gc26UzkM,McDonald's,"Goncalar, Girne Blv No:199/A, 35560 Karşıyaka/İzmir, Turkey",38.467403,27.109624
Izmir,Turkey,TR,38.42,27.14,train station,ChIJPczjkvPYuxQRr8uMjdMQGno,Basmane Gar,"Etiler Mah. Basmane,, Anafartalar Cd., Konak/İzmir, Turkey",38.4224857,27.1436001
Izmir,Turkey,TR,38.42,27.14,train station,ChIJ0SDOIJLQuxQRqdUOSnKKa50,Egekent,"Balatçık, 1671/1. Sk., 35620 Çiğli/İzmir, Turkey",38.5074215,27.0459261
Izmir,Turkey,TR,38.42,27.14,train station,ChIJ58-dYzbfuxQR_S3EO6ISdek,Koşu,"Akıncılar, Koşu Metro İstasyonu İçi Yolu, 35380 Buca/İzmir, Turkey",38.3833966,27.1473414
Izmir,Turkey,TR,38.42,27.14,train station,ChIJnfLgN_7ZuxQR9nZKjM55tu4,Mavişehir,"Şemikler, 6311. Sk., 35560 Karşıyaka/İzmir, Turkey",38.4822421,27.0829572
Izmir,Turkey,TR,38.42,27.14,train station,ChIJgdDTa8DZuxQRPIfcBVELzI8,Nergiz,"Nergiz, Nergiz Metro İstasyonu, 35560 Karşıyaka/İzmir, Turkey",38.45952,27.10475
Izmir,Turkey,TR,38.42,27.14,train station,ChIJM1CTVt_fuxQRyFx6xjdYKKE,Sarnıç,"Dokuz Eylül Mh. İmamoğlu/, 35410 İzmir, Turkey",38.3122185,27.1444877
Izmir,Turkey,TR,38.42,27.14,train station,ChIJ18s-6qbQuxQRYgLmsohVMow,Çiğli,"Ataşehir, Semra Aksu Cd, 35630 Çiğli/İzmir, Turkey",38.4921168,27.0631309
Izmir,Turkey,TR,38.42,27.14,train station,ChIJnS1uY_jXuxQRkAwGrUmRPSs,İzban Bayraklı İstasyonu,"Bayraklı, Bayraklı Üst Geçidi, 35530 Bayraklı/İzmir, Turkey",38.46382,27.1644
Izmir,Turkey,TR,38.42,27.14,train station,ChIJswZNbAbfuxQRBFkYapJnqfM,İzban Semt Garajı İstasyonu,"Binbaşı Reşatbey, 351. Sk., 35410 Gaziemir/İzmir, Turkey",38.3566978,27.1366133
Izmir,Turkey,TR,38.42,27.14,train station,ChIJqRvvTMrYuxQRvYkfpUP0V5c,Şirinyer,"Hürriyet, Aydın Hatboyu Cd., 35370 Buca/İzmir, Turkey",38.3919554,27.1471815
Kyiv,Ukraine,UA,50.4334,30.5166,fast food,ChIJO_wL1pLO1EARkV3tedcaQUk,KFC,"Polzunova St, 1, Kyiv, Ukraine, 02000",50.439089,30.4851156
Kyiv,Ukraine,UA,50.4334,30.5166,fast food,ChIJH9tObyXM1EAR3jDKhAQUa4U,McDonald's,"1, Vadyma Hetmana St, Kyiv, Ukraine, 02000",50.4524182,30.4454956
Kyiv,Ukraine,UA,50.4334,30.5166,fast food,ChIJlU_UBb7M1EARNEPkLWC6JHY,McDonald's,"Akademika Palladina Ave, 7-а, Kyiv, Ukraine, 03179",50.4622154,30.3554382
Kyiv,Ukraine,UA,50.4334,30.5166,fast food,ChIJ-03iqlHO1EARfQ2mf4q7184,McDonald's,"Stepana Bandery Avenue, 12, Kyiv, Київська обл., Ukraine, 04073",50.4884509,30.4978531
Kyiv,Ukraine,UA,50.4334,30.5166,fast food,ChIJB7xWP4_O1EARYOxU8nmxLQI,McDonald’s,"Borshchahivska St, 2-б, Kyiv, Ukraine, 03055",50.4481018,30.4792299
Kyiv,Ukraine,UA,50.4334,30.5166,train station,ChIJqY9Rj_LO1EAR1Y5OiuIyISM,Kyiv-Pasazhyrskyi,"Vokzalna St, 1, Kyiv, Ukraine, 02000",50.44048429999999,30.4893794
Kyiv,Ukraine,UA,50.4334,30.5166,train station,ChIJu5uc6VHJ1EARKp_vpXu4ziY,Kyiv-Volynskyi,"Kyiv, Ukraine, 02000",50.4121955,30.4301124
Kyiv,Ukraine,UA,50.4334,30.5166,train station,ChIJsadMKODO1EAR9vaYb-iu1Ek,Протасів Яр,"Kyiv, Ukraine, 02000",50.42636359999999,30.506647
Abu Dhabi,United Arab Emirates,AE,24.4667,54.3666,fast food,ChIJ_6Tal5RlXj4RpzFAxkFN3Y8,McDonald's,Adnoc Corniche Road Besides Adnoc Petrol Station - Abu Dhabi - United Arab Emirates,24.466516,54.332895
Abu Dhabi,United Arab Emirates,AE,24.4667,54.3666,fast food,ChIJPXIVrApmXj4RKE64cLZrJjc,McDonald's,"Zayed The First Street,Al Khalidiya, Opposite RAK Bank - Abu Dhabi - United Arab Emirates",24.4738508,54.3478404
Abu Dhabi,United Arab Emirates,AE,24.4667,54.3666,train station,ChIJ73EMkN5IXj4RXnVtI3mZN5s,Abu Dhabi International Airport,Abu Dhabi - United Arab Emirates,24.441938,54.6500736
Abu Dhabi,United Arab Emirates,AE,24.4667,54.3666,train station,ChIJ06QO1EFCXj4RhYGMu8zHuIc,Al Bateen Executive Airport,Abu Dhabi - United Arab Emirates,24.428812,54.4559301
Birmingham,United Kingdom,GB,52.48,-1.9025,fast food,ChIJZ7zXJHy7cEgRSN_AcT0OEdg,Big John's Lawley Middleway,"UNIT - 2 Langdon St, Garrison Ln, Birmingham B9 4BP, United Kingdom",52.48034699999999,-1.876409
Birmingham,United Kingdom,GB,52.48,-1.9025,train station,ChIJr_nVBYa8cEgRphflgZ2fT8Y,Birmingham Moor Street,"Birmingham B4 7UL, United Kingdom",52.4787219,-1.8926119
Birmingham,United Kingdom,GB,52.48,-1.9025,train station,ChIJcQUO3_GWcEgRLqMuD3pI-u0,Birmingham New Street,"Birmingham B2 4QA, United Kingdom",52.477754,-1.898958
Birmingham,United Kingdom,GB,52.48,-1.9025,train station,ChIJqacnDY68cEgRmTO4gfUnUac,Birmingham Snow Hill,"Colmore Row, Birmingham B3 2BJ, United Kingdom",52.4828375,-1.8983611
Birmingham,United Kingdom,GB,52.48,-1.9025,train station,ChIJ03KTkyClcEgRitzZJ8fqKyg,Chester Road,"16 Green Lanes, Wylde Green, Sutton Coldfield B73 5JW, United Kingdom",52.5355972,-1.8324787
Birmingham,United Kingdom,GB,52.48,-1.9025,train station,ChIJhYz231i8cEgRdno1h-cr-Ss,Five Ways,"Birmingham B15 1QA, United Kingdom",52.471165,-1.9128652
Glasgow,United Kingdom,GB,55.860916,-4.2514330000000005,train station,ChIJyZuL_qFGiEgR3SBbq8cl4Jw,Argyle Street,"8DL, 35 Argyle St, Glasgow G2 8AH, United Kingdom",55.8573,-4.250679
Glasgow,United Kingdom,GB,55.860916,-4.2514330000000005,train station,ChIJWb3nVyhEiEgRdI-HSDi7uMo,Charing Cross,"Glasgow G2 4PR, United Kingdom",55.864677,-4.269805
Glasgow,United Kingdom,GB,55.860916,-4.2514330000000005,train station,ChIJO5Cd151GiEgRVkqqbDK_Ze8,Glasgow Central Station,"Gordon St, Glasgow G1 3SL, United Kingdom",55.8591118,-4.2581088
Glasgow,United Kingdom,GB,55.860916,-4.2514330000000005,train station,ChIJ0x8CG91FiEgRX5I0oBYEvdk,Partick,"Merkland Ct, Merkland St, Partick, Glasgow G11 6BU, United Kingdom",55.8698743,-4.3087856
London,United Kingdom,GB,51.5,-0.1167,fast food,ChIJ1zR_F9YcdkgR3j7aCDgBX4w,Original Fried Chicken,"214 Mile End Rd, Stepney, London E1 4LJ, United Kingdom",51.52145609999999,-0.0474242
London,United Kingdom,GB,51.5,-0.1167,train station,ChIJgWfuuq0EdkgRMx1fYiZTGKE,Blackfriars Station,"179 Queen Victoria St, London EC4V 4DY, United Kingdom",51.5101691,-0.1032503
London,United Kingdom,GB,51.5,-0.1167,train station,ChIJPYLP8oIcdkgRFu-TAiiHlQc,Canonbury,"Wallace Rd, Mildmay Ward, London N1 2PG, United Kingdom",51.5486865,-0.0920935
London,United Kingdom,GB,51.5,-0.1167,train station,ChIJEbut6s4EdkgRNxY-NezJYd8,Charing Cross,"Charing Cross, London WC2N 5DR, United Kingdom",51.50813640000001,-0.1247618
London,United Kingdom,GB,51.5,-0.1167,train station,ChIJCaUmtVIbdkgR9NdxHM7hwWQ,City Thameslink,"Ludgate Hill, London EC4M 7JH, United Kingdom",51.5138902,-0.1036586
London,United Kingdom,GB,51.5,-0.1167,train station,ChIJNVch-SMbdkgRqv1PBlyKQqU,Euston,"London NW1 2DU, United Kingdom",51.5280991,-0.1332084
London,United Kingdom,GB,51.5,-0.1167,train station,ChIJAfpLxIoadkgR2-TwZeuzY-E,Hampstead Heath,"Hampstead, London NW3 2QD, United Kingdom",51.5552509,-0.1658907
London,United Kingdom,GB,51.5,-0.1167,train station,ChIJmxO_XDwbdkgR-zjbcc_J6Xs,King's Cross,"Euston Rd, Kings Cross, London N1 9AL, United Kingdom",51.5320013,-0.1233234
London,United Kingdom,GB,51.5,-0.1167,train station,ChIJsUs1REwDdkgRX_9hC2x9f8U,Liverpool Street Station,"Liverpool St, London EC2M 7PY, United Kingdom",51.51875159999999,-0.0814374
London,United Kingdom,GB,51.5,-0.1167,train station,ChIJdQ_yANcadkgRJvgBongmJZc,Marylebone Station,"Melcombe Pl, Marylebone, London NW1 6JJ, United Kingdom",51.5224906,-0.1631669
London,United Kingdom,GB,51.5,-0.1167,train station,ChIJ00V-I7ccdkgRsLnD9dZoLoM,Shoreditch High Street,"Braithwaite St, Shoreditch, London E1 6GJ, United Kingdom",51.52326979999999,-0.07537289999999999
London,United Kingdom,GB,51.5,-0.1167,train station,ChIJJe2YjTsbdkgREt0yqM9vLbk,St Pancras International,"Euston Rd, Kings Cross, London N1C 4QP, United Kingdom",51.531427,-0.126133
London,United Kingdom,GB,51.5,-0.1167,train station,ChIJHVKfwLkEdkgRugNQexmYBR0,Waterloo Station,"Waterloo Rd, Bishop's, London SE1 8SW, United Kingdom",51.5031653,-0.1123051
London,United Kingdom,GB,51.5,-0.1167,train station,ChIJxQCH644PdkgRDLl0swha96A,West Brompton Station,"Old Brompton Rd, Kensington, London SW5 9JX, United Kingdom",51.4872383,-0.1955233
Manchester,United Kingdom,GB,53.479443999999994,-2.245278,train station,ChIJ87xKu-uxe0gR_0Kcr1xPxqY,Manchester Oxford Road,"Oxford Rd, Manchester M1 6FU, United Kingdom",53.4740579,-2.2422272
Manchester,United Kingdom,GB,53.479443999999994,-2.245278,train station,ChIJl68fp-uxe0gRRjTecfQPsHA,Manchester Oxford Road railway station,"Manchester, United Kingdom",53.474044,-2.2422075
Manchester,United Kingdom,GB,53.479443999999994,-2.245278,train station,ChIJJ119P7FSekgRZCgb7kOayfA,Manchester Piccadilly,"Manchester M60 7RA, United Kingdom",53.4774166,-2.2311667
Manchester,United Kingdom,GB,53.479443999999994,-2.245278,train station,ChIJ7Uj0M8axe0gRsNV10bhsBew,Manchester Victoria,"Victoria Station Approach, Manchester M3 1WY, United Kingdom",53.48753749999999,-2.2421547
Chicago,United States,US,41.881944,-87.627778,fast food,ChIJaWSr9GosDogR-_DHSJxx71w,Maxwell Street Depot,"411 W 31st St, Chicago, IL 60616, United States",41.838033,-87.637119
Chicago,United States,US,41.881944,-87.627778,fast food,ChIJw6FXY7AsDogRYYFCoZJpNMo,McDonald's,"23 S Clark St, Chicago, IL 60603, United States",41.880939,-87.63056279999999
Chicago,United States,US,41.881944,-87.627778,fast food,ChIJz96tkVLTD4gRlP_hYYMZ084,McDonald's,"10 E Chicago Ave, Chicago, IL 60611, United States",41.8969635,-87.62771
Chicago,United States,US,41.881944,-87.627778,fast food,ChIJ24q4qLMsDogRkwzJD2maZcw,McDonald's,"600 N Clark St, Chicago, IL 60610, United States",41.89286999999999,-87.631553
Chicago,United States,US,41.881944,-87.627778,fast food,ChIJuegoh9LTD4gRL91mfVlzrpk,Sonic Drive-In,"1022 W Wilson Ave, Chicago, IL 60640, United States",41.9657167,-87.6558793
Chicago,United States,US,41.881944,-87.627778,fast food,ChIJ_24whu_SD4gRHteCQLI3ErE,Wendy's,"2312 N Ashland Ave, Chicago, IL 60614, United States",41.9237584,-87.6686678
Chicago,United States,US,41.881944,-87.627778,fast food,ChIJ_6bSDRnSD4gRgKXKbzpn1GE,Wendy's,"2053 W Lawrence Ave, Chicago, IL 60625, United States",41.9685231,-87.6812095
Chicago,United States,US,41.881944,-87.627778,fast food,ChIJLUWadPstDogRUu59JY8pSKM,Wendy's,"2610 W Pershing Rd, Chicago, IL 60632, United States",41.8231545,-87.69005969999999
Chicago,United States,US,41.881944,-87.627778,fast food,ChIJD9S64RQxDogRsrxR5FBDcT8,Wendy's,"5679 S Archer Ave, Chicago, IL 60638, United States",41.7969434,-87.7530957
Chicago,United States,US,41.881944,-87.627778,fast food,ChIJX6KeK87SD4gRGimlDp7LF3E,Wendy's,"1623 W Division St, Chicago, IL 60622, United States",41.9029941,-87.6683564
Chicago,United States,US,41.881944,-87.627778,fast food,ChIJIXveqn0sDogR8ervJbCHIK0,White Castle,"2140 S Wabash Ave, Chicago, IL 60616, United States",41.8531325,-87.6259821
Chicago,United States,US,41.881944,-87.627778,train station,ChIJcw46G5YsDogRZrQcGmyuiCA,LaSalle Street Station,"414 S LaSalle St, Chicago, IL 60605, United States",41.87529989999999,-87.63214769999999
Chicago,United States,US,41.881944,-87.627778,train station,ChIJY5fz3oArDogRsgfl80hAi10,McCormick Place,"Chicago, IL 60616, United States",41.8531324,-87.61607049999999
Chicago,United States,US,41.881944,-87.627778,train station,ChIJxWs7XL4sDogRysYET13BYMg,Millennium Station,"151 Michigan Ave, Chicago, IL 60602, United States",41.8843397,-87.6246345
Chicago,United States,US,41.881944,-87.627778,train station,ChIJX4ULHMcsDogRkQSms4_CmLA,Ogilvie Transportation Center,"Citigroup Center, 500 W Madison St #3610, Chicago, IL 60661, United States",41.88315559999999,-87.6404924
Chicago,United States,US,41.881944,-87.627778,train station,ChIJXS-zu40sDogRCRFLBMBdmF8,Union Station,"225 S Canal St, Chicago, IL 60606, United States",41.8786447,-87.64040659999999
Chicago,United States,US,41.881944,-87.627778,train station,ChIJ2Sd201EtDogRnxCLyDwZGEM,Western Avenue,"420 N Artesian Ave, Chicago, IL 60612, United States",41.8891514,-87.68815
Houston,United States,US,29.762778000000004,-95.38305600000001,fast food,ChIJdz60YnW7QIYR5_dnNU9Khew,Arby's,"3940 N McCarty St, Houston, TX 77013, United States",29.7985332,-95.2691191
Houston,United States,US,29.762778000000004,-95.38305600000001,fast food,ChIJsxwyTwvHQIYRqZUjPfi2V4o,Chick-fil-A,"925 N Loop W, Houston, TX 77008, United States",29.8118467,-95.416348
Houston,United States,US,29.762778000000004,-95.38305600000001,fast food,ChIJY6TFOS3OQIYRg6UWPDHLcHY,Chick-fil-A,"9440 West Sam Houston Pkwy N, Houston, TX 77064, United States",29.9047028,-95.5526527
Houston,United States,US,29.762778000000004,-95.38305600000001,fast food,ChIJh2llUaPGQIYR_YBQJyrDYYA,Chick-fil-A,"7660 Katy Fwy, Houston, TX 77024, United States",29.7867933,-95.4676793
Houston,United States,US,29.762778000000004,-95.38305600000001,fast food,ChIJXStWsPbAQIYR2HCGSPaumKE,Chick-fil-A,"2715 Southwest Fwy, Houston, TX 77098, United States",29.7297136,-95.4208791
Houston,United States,US,29.762778000000004,-95.38305600000001,fast food,ChIJA2-iQMzCQIYRRyi5EESEQ1o,Chick-fil-A,"6840 W Sam Houston Pkwy S, Houston, TX 77072, United States",29.7031105,-95.55807390000001
Houston,United States,US,29.762778000000004,-95.38305600000001,fast food,ChIJIWKPf3HBQIYROwbYKZ3tgrg,Chick-fil-A,"5325 S Rice Ave Sage Road and Westpark Toll, Houston, TX 77081, United States",29.7241897,-95.4675999
Houston,United States,US,29.762778000000004,-95.38305600000001,fast food,ChIJEfRZm4y-QIYRcZqiX6IOAQs,Jack in the Box,"801 Telephone Rd, Houston, TX 77023, United States",29.7345199,-95.3292999
Houston,United States,US,29.762778000000004,-95.38305600000001,fast food,ChIJqdlRGRq2QIYR5omMd9UKNr0,Jack in the Box,"739 N Sam Houston Pkwy E, Houston, TX 77060, United States",29.9398163,-95.3845641
Houston,United States,US,29.762778000000004,-95.38305600000001,fast food,ChIJM48q50qWQIYRVD06eJLc3tk,Jack in the Box,"8111 Airport Blvd, Houston, TX 77061, United States",29.6586434,-95.2698755
Houston,United States,US,29.762778000000004,-95.38305600000001,fast food,ChIJ6_zF9vXCQIYREw0aAskCLHU,Jack in the Box,"7221 Fondren Rd, Houston, TX 77036, United States",29.7020165,-95.5192034
Houston,United States,US,29.762778000000004,-95.38305600000001,fast food,ChIJOdoRAAzqQIYRqiqwqK5G9UE,Jack in the Box,"4920 W Bellfort Blvd, Houston, TX 77035, United States",29.6709703,-95.4627867
Houston,United States,US,29.762778000000004,-95.38305600000001,fast food,ChIJicrszzm_QIYRs1vXNrPlnQA,Jollibee,"8001 S Main St #100, Houston, TX 77025, United States",29.6933845,-95.4145963
Houston,United States,US,29.762778000000004,-95.38305600000001,fast food,ChIJEQJDxMDEQIYRz6gaOvFK5p4,Wendy's,"1225 Gessner Rd, Houston, TX 77055, United States",29.7905703,-95.545034
Houston,United States,US,29.762778000000004,-95.38305600000001,fast food,ChIJ8VSr4MvcQIYReTmC7U5McEc,Wendy's,"10780 Westheimer Rd, Houston, TX 77042, United States",29.7371762,-95.56667800000001
Los Angeles,United States,US,34.05,-118.25,fast food,ChIJMWnCPNq2woARfG2sVycGnao,Carl's Jr.,"5625 W Century Blvd, Los Angeles, CA 90045, United States",33.9458716,-118.3796328
Los Angeles,United States,US,34.05,-118.25,fast food,ChIJfwtOnHDHwoARPnL7W7dVcFk,Carl's Jr.,"3005 W 6th St, Los Angeles, CA 90020, United States",34.0639158,-118.2874686
Los Angeles,United States,US,34.05,-118.25,fast food,ChIJVa_zcn_GwoARp7xounQ41lM,Carl's Jr.,"3215 N Broadway, Los Angeles, CA 90031, United States",34.0740524,-118.2071713
Los Angeles,United States,US,34.05,-118.25,fast food,ChIJ07Z5qKXIwoAR4BVPirbOZ6o,Jack in the Box,"1335 S Soto St, Los Angeles, CA 90023, United States",34.0253644,-118.2202345
Los Angeles,United States,US,34.05,-118.25,fast food,ChIJ54tM2ZzIwoAR7XM0rvZmt5I,Jack in the Box,"1415 S Alameda St, Los Angeles, CA 90021, United States",34.025021,-118.2398736
Los Angeles,United States,US,34.05,-118.25,fast food,ChIJ3dPMkJDHwoARqZORTJqLGWM,Jack in the Box,"2120 W Pico Blvd, Los Angeles, CA 90006, United States",34.046938,-118.2837707
Los Angeles,United States,US,34.05,-118.25,fast food,ChIJjWs2Pi-_woAR-r87Tu2ZRso,Jack in the Box,"1243 N Highland Ave, Los Angeles, CA 90038, United States",34.093837,-118.3389102
Los Angeles,United States,US,34.05,-118.25,fast food,ChIJVzo3PCLHwoARUrYTansV_eM,Jack in the Box,"1710 Glendale Blvd, Los Angeles, CA 90026, United States",34.0860336,-118.2595691
Los Angeles,United States,US,34.05,-118.25,fast food,ChIJg6NxEefHwoARgGH0PL8Rx7A,Jack in the Box,"2921 S Figueroa St, Los Angeles, CA 90007, United States",34.0254011,-118.2782668
Los Angeles,United States,US,34.05,-118.25,fast food,ChIJezgm9eC4woARPcfqL4qlztI,Jack in the Box,"5201 Wilshire Blvd, Los Angeles, CA 90036, United States",34.062448,-118.3431333
Los Angeles,United States,US,34.05,-118.25,fast food,ChIJBSQauhXPwoARdzFUUiMeCBo,Jack in the Box,"4290 E Olympic Blvd, Los Angeles, CA 90023, United States",34.018673,-118.1803608
Los Angeles,United States,US,34.05,-118.25,fast food,ChIJ7w9tDvPHwoAR1n-EuEdjF1Y,Jack in the Box,"2511 S Vermont Ave, Los Angeles, CA 90007, United States",34.0334124,-118.2918629
Los Angeles,United States,US,34.05,-118.25,fast food,ChIJP0OvdkDKwoARoC25Oa2tkGM,Jack in the Box,"12735 S Main St, Los Angeles, CA 90061, United States",33.9168255,-118.2742783
Los Angeles,United States,US,34.05,-118.25,fast food,ChIJ1-M9is_HwoARd1vWjkDjvsI,Jack in the Box,"1615 S Broadway, Los Angeles, CA 90015, United States",34.0340636,-118.2640457
Los Angeles,United States,US,34.05,-118.25,fast food,ChIJQV8ja3HGwoARGZlnaZXpS5U,Jack in the Box,"1135 N Mission Rd, Los Angeles, CA 90033, United States",34.0614836,-118.2136685
Los Angeles,United States,US,34.05,-118.25,fast food,ChIJ-yi7oWPPwoARZEYDTbTmSC0,Jack in the Box,"4255 East Cesar E Chavez Avenue, Los Angeles, CA 90063, United States",34.0407828,-118.1740026
Los Angeles,United States,US,34.05,-118.25,fast food,ChIJ12_rD_3FwoARMGvKLJHEYf4,Jack in the Box,"2701 East Cesar E Chavez Avenue, Los Angeles, CA 90033, United States",34.0452767,-118.2037711
Los Angeles,United States,US,34.05,-118.25,fast food,ChIJdQpsN3vHwoAReS-FaQYF1O4,Jack in the Box,"459 S Vermont Ave, Los Angeles, CA 90020, United States",34.0655876,-118.2919447
Los Angeles,United States,US,34.05,-118.25,fast food,ChIJTVzJ98rJwoAR67TRUwp0OPo,Jack in the Box,"7120 S Broadway, Los Angeles, CA 90003, United States",33.9748987,-118.2780696
Los Angeles,United States,US,34.05,-118.25,train station,ChIJhzdPRt7AwoARmZ3yjeKw5nE,Glendale Station,"400 W Cerritos Ave, Glendale, CA 91204, United States",34.1236568,-118.2589414
Los Angeles,United States,US,34.05,-118.25,train station,ChIJS7ytYEHGwoARaSWuQfUXclI,Union Station,"800 N Alameda St, Los Angeles, CA 90012, United States",34.056219,-118.2365021
New York,United States,US,40.661,-73.944,fast food,ChIJYdvfn_9YwokR0Q_aRO2KucY,Chick-fil-A,"1180 6th Ave, New York, NY 10036, United States",40.7574388,-73.9819607
New York,United States,US,40.661,-73.944,fast food,ChIJcWEq7nVZwokRCaffM0Bqu8o,McDonald's,"102 1st Avenue, New York, NY 10003, United States",40.7265241,-73.98576369999999
New York,United States,US,40.661,-73.944,fast food,ChIJXYkzt-VYwokRYLEw3XUDrzA,McDonald's,"966 3rd Ave, New York, NY 10022, United States",40.760838,-73.967323
New York,United States,US,40.661,-73.944,fast food,ChIJhT6eMlZYwokRUlEXJqZqJjY,McDonald's,"1651 Broadway, New York, NY 10019, United States",40.762244,-73.983757
New York,United States,US,40.661,-73.944,fast food,ChIJ2_VLfRdawokRXKfA6CMf5YQ,McDonald's,"160 Broadway, New York, NY 10038, United States",40.7094789,-74.01003639999999
New York,United States,US,40.661,-73.944,fast food,ChIJ-V8pZbxYwokRcaLbqZjnkz0,McDonald's,"1499 3rd Ave, New York, NY 10028, United States",40.777789,-73.954515
New York,United States,US,40.661,-73.944,fast food,ChIJ37k-1lBYwokRI83De2HGXlk,McDonald's,"946 8th Ave, New York, NY 10019, United States",40.765877,-73.983273
New York,United States,US,40.661,-73.944,fast food,ChIJEbAoZYpYwokRFMuHCoXVP94,McDonald's,"2049 Broadway, New York, NY 10023, United States",40.777901,-73.982472
New York,United States,US,40.661,-73.944,fast food,ChIJX6gV9qlYwokRb44IOUFbw4Q,White Castle,"351 E 103rd St, New York, NY 10029, United States",40.7880559,-73.9417277
New York,United States,US,40.661,-73.944,train station,ChIJzx-k7JZZwokRiqfQDMZnyr8,9th Street Station,"W 9th St, New York, NY 10011, United States",40.7342315,-73.998802
New York,United States,US,40.661,-73.944,train station,ChIJTTBqKbJPwokRFBvKJfAhfr8,Clifton Station,"Staten Island, NY 10304, United States",40.6214041,-74.0715238
New York,United States,US,40.661,-73.944,train station,ChIJhRwB-yFawokRi0AhGH87UTc,Grand Central Terminal,"89 E 42nd St, New York, NY 10017, United States",40.7527262,-73.9772294
New York,United States,US,40.661,-73.944,train station,ChIJmZjGPYRTwokRdyJ6BbmRSAQ,Newark Penn Station,"1 Raymond Plaza West &, Market St, Newark, NJ 07102, United States",40.7345989,-74.1639867
New York,United States,US,40.661,-73.944,train station,ChIJy62yFa5ZwokRun79NAZCVXk,Pennsylvania Station,"New York, NY 10119, United States",40.750568,-73.993519
New York,United States,US,40.661,-73.944,train station,ChIJZ-yfexlawokRAAudy1wMF98,World Trade Center,"10007, 70 Vesey St, New York, 10006, United States",40.7115742,-74.0114485
San Francisco,United States,US,37.7775,-122.416389,fast food,ChIJe1dFg1N-j4ARUmPiL2TKF-s,Burger King,"245 Bayshore Blvd, San Francisco, CA 94124, United States",37.7441502,-122.4040275
San Francisco,United States,US,37.7775,-122.416389,fast food,ChIJe-DIDjmHhYARTuWMrkDMZAA,Burger King,"3900 Geary Blvd, San Francisco, CA 94118, United States",37.781356,-122.4612407
San Francisco,United States,US,37.7775,-122.416389,fast food,ChIJ-XBT5Gx8j4ARDraqDDvVQxA,Carl's Jr.,"2434 Junipero Serra Blvd, Daly City, CA 94015, United States",37.6923026,-122.4713555
San Francisco,United States,US,37.7775,-122.416389,fast food,ChIJy9BQABaHhYARa3fVL1DQeoI,Jack in the Box,"4649 Geary Blvd, San Francisco, CA 94118, United States",37.7805826,-122.4694611
San Francisco,United States,US,37.7775,-122.416389,fast food,ChIJYzN0GFR-j4AR0FEX96PaoM8,Jack in the Box,"366 Bayshore Blvd, San Francisco, CA 94124, United States",37.7415988,-122.4067062
San Francisco,United States,US,37.7775,-122.416389,fast food,ChIJcxEbr7x5j4ARXKiG4vU-mSo,Jack in the Box,"201 S Spruce Ave St, South San Francisco, CA 94080, United States",37.6478298,-122.4189524
San Francisco,United States,US,37.7775,-122.416389,fast food,ChIJXyzMfHd3j4ARPFTXCReJBFg,Jack in the Box,"1700 El Camino Real, San Bruno, CA 94066, United States",37.6142027,-122.4048454
San Francisco,United States,US,37.7775,-122.416389,fast food,ChIJ91vQCuWGj4ARDORvBvCZS9c,Jack in the Box,"2424 E, International Blvd, Oakland, CA 94601, United States",37.7825339,-122.2340249
San Francisco,United States,US,37.7775,-122.416389,fast food,ChIJT3PZo655j4ARqwuC_q4LQAc,McDonald's,"381 S Airport Blvd, South San Francisco, CA 94080, United States",37.6439805,-122.4036431
San Francisco,United States,US,37.7775,-122.416389,fast food,ChIJLYvK8TF-j4ARF3I1j5oe0ls,McDonald's,"302 Potrero Ave, San Francisco, CA 94110, United States",37.76541510000001,-122.4079489
San Francisco,United States,US,37.7775,-122.416389,fast food,ChIJ92WDBbuAhYARQZ1TXrfhXv0,McDonald's,"1100 Fillmore St, San Francisco, CA 94102, United States",37.7798713,-122.4317172
San Francisco,United States,US,37.7775,-122.416389,fast food,ChIJebS92dJ9j4ARPPVCa7T1q8Q,McDonald's,"1201 Ocean Ave, San Francisco, CA 94112, United States",37.7235448,-122.455458
San Francisco,United States,US,37.7775,-122.416389,fast food,ChIJu37Vayx6j4ARVt6bhwhnbak,McDonald's,"2298 Gellert Blvd, South San Francisco, CA 94080, United States",37.6437801,-122.4537025
San Francisco,United States,US,37.7775,-122.416389,train station,ChIJyRDpIrd_j4ARIiDdEyIYEx8,22nd Street,"1149 22nd St, San Francisco, CA 94107, United States",37.7573838,-122.3928954
San Francisco,United States,US,37.7775,-122.416389,train station,ChIJ85oSU8mAj4AR6Z76S_qiR_4,Jack London Square,"245 2nd St, Oakland, CA 94607, United States",37.7938137,-122.2715217
San Francisco,United States,US,37.7775,-122.416389,train station,ChIJW4Eh5rB3j4ARXNKfR-5KGbY,Millbrae,"100 California Dr, Millbrae, CA 94030, United States",37.6001863,-122.3868224
San Francisco,United States,US,37.7775,-122.416389,train station,ChIJJcGq74WAhYARe6CJkbXi9l8,Powell Station,"San Francisco, CA 94102, United States",37.7849377,-122.4069052
San Francisco,United States,US,37.7775,-122.416389,train station,ChIJw8B-EwZ4hYAR3LrPrCTytn8,Richmond Station,"1700 Nevin Ave, Richmond, CA 94802, United States",37.93688059999999,-122.3536155
Washington,United States,US,38.9047,-77.0163,fast food,ChIJ4eQy-8jJt4kRjcA2KiLMv1Y,Burger King,"4422 Connecticut Ave NW, Washington, DC 20008, United States",38.9473046,-77.06576480000001
Washington,United States,US,38.9047,-77.0163,fast food,ChIJ4VTlfB_It4kRR8l_KJahZ1U,Chick-fil-A,"3100 14th St NW, Washington, DC 20010, United States",38.9291367,-77.0328614
Washington,United States,US,38.9047,-77.0163,fast food,ChIJseVNSEC4t4kRghd51D0Bnas,Chick-fil-A,"1401 Maryland Ave NE, Washington, DC 20002, United States",38.8991067,-76.9851262
Washington,United States,US,38.9047,-77.0163,fast food,ChIJO3N1FJe3t4kRHZL4qzkdwjQ,McDonald's,"555 13th St NW, Washington, DC 20004, United States",38.89705,-77.0293714
Washington,United States,US,38.9047,-77.0163,fast food,ChIJDUVgj7u3t4kR7jnqzpfyW2E,McDonald's,"750 17th St NW, Washington, DC 20006, United States",38.8996298,-77.0397498
Washington,United States,US,38.9047,-77.0163,fast food,ChIJR-ZrCo-3t4kRqAmsNc4bR-s,McDonald's,"400 C St SW, Washington, DC 20024, United States",38.885898,-77.01800899999999
Washington,United States,US,38.9047,-77.0163,fast food,ChIJzd4oJ5S3t4kRdOWbVWMM-6Y,McDonald's,"1235 New York Ave NW, Washington, DC 20005, United States",38.900598,-77.02937299999999
Washington,United States,US,38.9047,-77.0163,fast food,ChIJV9S5JLi3t4kR75GwLmBEaFU,McDonald's,"1916 M St NW, Washington, DC 20036, United States",38.9055127,-77.0442526
Washington,United States,US,38.9047,-77.0163,fast food,ChIJmzXuUuO3t4kRr7FLUsl4K04,McDonald's,"2328 Georgia Ave NW, Washington, DC 20001, United States",38.92059039999999,-77.0223096
Washington,United States,US,38.9047,-77.0163,fast food,ChIJr0r6zQe4t4kRc8U_XIvqdow,McDonald's,"424 Rhode Island Ave NE, Washington, DC 20002, United States",38.920516,-76.999408
Washington,United States,US,38.9047,-77.0163,fast food,ChIJDZbhJhy4t4kRI2PQrKP_doU,McDonald's,"75 New York Ave NE, Washington, DC 20002, United States",38.907985,-77.0063021
Washington,United States,US,38.9047,-77.0163,fast food,ChIJt0gkDhy4t4kRV9NpGRhPoyg,Wendy's,"100 New York Ave NE, Washington, DC 20002, United States",38.9089052,-77.00540939999999
Washington,United States,US,38.9047,-77.0163,train station,ChIJ4bGhuIK3t4kRHWc1MPvF-XI,L'Enfant,"650 Virginia Ave SW, Washington, DC 20024, United States",38.8855601,-77.02097599999999
Washington,United States,US,38.9047,-77.0163,train station,ChIJo3AxsoK3t4kRe_sPCeCSQ_E,L'Enfant Plaza,"600 Maryland Ave SW, Washington, DC 20024, United States",38.8861397,-77.0217977
Washington,United States,US,38.9047,-77.0163,train station,ChIJ5cw4sny3t4kRo51eJEwJ9ZE,McPherson Square Station,"Washington, DC 20006, United States",38.9010925,-77.0321776
Washington,United States,US,38.9047,-77.0163,train station,ChIJdbbOHLnIt4kREyajJLF9h_k,Silver Spring Station,"8400 Colesville Rd, Silver Spring, MD 20910, United States",38.9938261,-77.03131599999999
Washington,United States,US,38.9047,-77.0163,train station,ChIJUVpdyia4t4kR1-EM1pEJu1w,Union Station,"50 Massachusetts Ave NE, Washington, DC 20002, United States",38.8986425,-77.0058145
Washington,United States,US,38.9047,-77.0163,train station,ChIJOwEGSyG4t4kRsBzG9XGHIUk,Washington Union Station,"50 Massachusetts Ave NE, Washington, DC 20002, United States",38.8977859,-77.0057621
Washington,United States,US,38.9047,-77.0163,train station,ChIJZQoeV6nHt4kRgo5LpmvEzwM,West Hyattsville,"2700 Hamilton St, Hyattsville, MD 20782, United States",38.9551966,-76.96951279999999
Hanoi,Vietnam,VN,21.0333,105.85,fast food,ChIJbcLfKTerNTERf7ONBrhUSms,Jollibee,"303 - 305 Tô Hiệu, Dịch Vọng, Cầu Giấy, Hà Nội, Vietnam",21.0415161,105.7906942
Hanoi,Vietnam,VN,21.0333,105.85,fast food,ChIJseNCUOurNTERGrugB80R4es,McDonald's Hồ Gươm,"2 Phố Hàng Bài, Tràng Tiền, Hoàn Kiếm, Hà Nội 100000, Vietnam",21.0253751,105.8530549
Hanoi,Vietnam,VN,21.0333,105.85,train station,ChIJBdI0eZqrNTEREK_Nhl4hGOI,Hanoi Railway Station,"120 Đường Lê Duẩn, Văn Miếu, Hoàn Kiếm, Hà Nội, Vietnam",21.0242529,105.841029
